{"type": "FeatureCollection", "features": [{"type": "Feature", "geometry": {"type": "Point", "coordinates": [77.6102, 12.9705]}, "properties": {"kind": "camera", "marker": "circle", "marker_radius": 6, "camera": "Garudamall_JN2_FIX-1", "assigned_node_id": "9363518171", "node_x": 3972.77, "node_y": 3489.64, "distance_m": 12.68017452779944}}, {"type": "Feature", "geometry": {"type": "Point", "coordinates": [77.6103, 12.9702]}, "properties": {"kind": "camera", "marker": "circle", "marker_radius": 6, "camera": "Garudamall_JN4_HD-1", "assigned_node_id": "248459878", "node_x": 3972.85, "node_y": 3488.72, "distance_m": 23.891277573337547}}, {"type": "Feature", "geometry": {"type": "Point", "coordinates": [77.6111, 12.9743]}, "properties": {"kind": "camera", "marker": "circle", "marker_radius": 6, "camera": "Mayohall_JN1_FIX_1", "assigned_node_id": "1232953300", "node_x": 4055.61, "node_y": 3864.7, "distance_m": 54.90671161110378}}, {"type": "Feature", "geometry": {"type": "Point", "coordinates": [77.6111, 12.9744]}, "properties": {"kind": "camera", "marker": "circle", "marker_radius": 6, "camera": "Mayohall_JN2_FIX_1", "assigned_node_id": "cluster_11854316017_11854316018_11854316019_4044263600", "node_x": 4060.64, "node_y": 3928.53, "distance_m": 4.66255819334285}}, {"type": "Feature", "geometry": {"type": "Point", "coordinates": [77.6111, 12.9743]}, "properties": {"kind": "camera", "marker": "circle", "marker_radius": 6, "camera": "Mayohall_JN3_FIX_1", "assigned_node_id": "1232953258", "node_x": 4015.76, "node_y": 3831.48, "distance_m": 97.12552597704035}}, {"type": "Feature", "geometry": {"type": "Point", "coordinates": [77.6069, 12.971]}, "properties": {"kind": "camera", "marker": "circle", "marker_radius": 6, "camera": "Brigade_Rd_St_Pat_Church_JN1_FIX_1", "assigned_node_id": "cluster1232963659_5372824878", "node_x": 3616.94, "node_y": 3591.54, "distance_m": 43.71569542815411}}, {"type": "Feature", "geometry": {"type": "Point", "coordinates": [77.6069, 12.971]}, "properties": {"kind": "camera", "marker": "circle", "marker_radius": 6, "camera": "Brigade_Rd_St_Pat_Church_JN2_FIX_1", "assigned_node_id": "1232963668", "node_x": 3630.1, "node_y": 3596.24, "distance_m": 53.19503787840811}}, {"type": "Feature", "geometry": {"type": "Point", "coordinates": [77.6106, 12.9688]}, "properties": {"kind": "camera", "marker": "circle", "marker_radius": 6, "camera": "Commisrate_Rd_ftball_Stdm_JN1_FIX_1", "assigned_node_id": "11854316023", "node_x": 3911.24, "node_y": 3503.72, "distance_m": 216.57219325673486}}, {"type": "Feature", "geometry": {"type": "Point", "coordinates": [77.6107, 12.9688]}, "properties": {"kind": "camera", "marker": "circle", "marker_radius": 6, "camera": "Commisrate_Rd_ftball_Stdm_JN3_FIX_1", "assigned_node_id": "1274338614", "node_x": 3997.78, "node_y": 3473.32, "distance_m": 164.3922274000434}}, {"type": "Feature", "geometry": {"type": "Point", "coordinates": [77.6111, 12.9673]}, "properties": {"kind": "camera", "marker": "circle", "marker_radius": 6, "camera": "Life_Styl_JN2_FIX_1", "assigned_node_id": "cluster_12462507949_13462280316_4903183637_6017833824", "node_x": 4069.61, "node_y": 3132.71, "distance_m": 13.079885339495739}}, {"type": "Feature", "geometry": {"type": "Point", "coordinates": [77.6113, 12.9672]}, "properties": {"kind": "camera", "marker": "circle", "marker_radius": 6, "camera": "Life_Styl_JN4_FIX_3", "assigned_node_id": "cluster_253890170_4044110245", "node_x": 4221.71, "node_y": 2532.46, "distance_m": 616.5007216382189}}, {"type": "Feature", "geometry": {"type": "Point", "coordinates": [77.6067, 12.9663]}, "properties": {"kind": "camera", "marker": "circle", "marker_radius": 6, "camera": "Vellara_JN3_FIX_1", "assigned_node_id": "248455472", "node_x": 3282.36, "node_y": 2967.46, "distance_m": 311.8304849431197}}, {"type": "Feature", "geometry": {"type": "Point", "coordinates": [77.6056, 12.9549]}, "properties": {"kind": "camera", "marker": "circle", "marker_radius": 6, "camera": "Hosuru_Rd_Cmtry_JN1_FIX_1", "assigned_node_id": "cluster_10043357420_4294224252", "node_x": 3441.78, "node_y": 1527.41, "distance_m": 241.98345265031892}}, {"type": "Feature", "geometry": {"type": "Point", "coordinates": [77.6067, 12.9648]}, "properties": {"kind": "camera", "marker": "circle", "marker_radius": 6, "camera": "Johnson_Mrkt_JN2_FIX_1", "assigned_node_id": "2890442001", "node_x": 3589.02, "node_y": 2819.09, "distance_m": 44.074957385232494}}, {"type": "Feature", "geometry": {"type": "Point", "coordinates": [77.6106, 12.9689]}, "properties": {"kind": "camera", "marker": "circle", "marker_radius": 6, "camera": "Commis_Rd_ftball_Stdm_JN2_FIX_1", "assigned_node_id": "11854316021", "node_x": 3974.45, "node_y": 3487.14, "distance_m": 169.2736283580045}}, {"type": "Feature", "geometry": {"type": "Point", "coordinates": [77.611, 12.9672]}, "properties": {"kind": "camera", "marker": "circle", "marker_radius": 6, "camera": "Life_Styl_JN1_HD_1", "assigned_node_id": "cluster_3268824710_4044110261", "node_x": 3939.29, "node_y": 2894.73, "distance_m": 264.8866004037831}}, {"type": "Feature", "geometry": {"type": "Point", "coordinates": [77.611, 12.9672]}, "properties": {"kind": "camera", "marker": "circle", "marker_radius": 6, "camera": "Life_Styl_JN1_PTZ_1", "assigned_node_id": "1598530796", "node_x": 4038.27, "node_y": 3118.88, "distance_m": 21.387453750796393}}, {"type": "Feature", "geometry": {"type": "Point", "coordinates": [77.6112, 12.9674]}, "properties": {"kind": "camera", "marker": "circle", "marker_radius": 6, "camera": "Life_Styl_JN3_FIX_2", "assigned_node_id": "clustercluster_12460840938_12460840939_cluster_9870839712_9870882717", "node_x": 4384.5, "node_y": 3278.04, "distance_m": 332.44817456046263}}, {"type": "Feature", "geometry": {"type": "Point", "coordinates": [77.6063, 12.9682]}, "properties": {"kind": "camera", "marker": "circle", "marker_radius": 6, "camera": "Old_PS_Crle_Nr_Giriyas_JN1_FIX_1", "assigned_node_id": "cluster_12460929618_263155275_9933265930", "node_x": 3522.51, "node_y": 3266.78, "distance_m": 34.14466412261845}}, {"type": "Feature", "geometry": {"type": "Point", "coordinates": [77.6086, 12.9667]}, "properties": {"kind": "camera", "marker": "circle", "marker_radius": 6, "camera": "Richmond_Rd_Mthr_Tersa_Rd_JN1_FIX_1", "assigned_node_id": "23029284-AddedOnRampNode", "node_x": 3587.65, "node_y": 3487.14, "distance_m": 460.3172629715558}}, {"type": "Feature", "geometry": {"type": "Point", "coordinates": [77.6089, 12.9666]}, "properties": {"kind": "camera", "marker": "circle", "marker_radius": 6, "camera": "Richmond_Rd_Mthr_Tersa_Rd_JN2_FIX_2", "assigned_node_id": "cluster_11919132703_12462507904", "node_x": 3809.14, "node_y": 3071.33, "distance_m": 18.538660754382516}}, {"type": "Feature", "geometry": {"type": "Point", "coordinates": [77.6067, 12.9661]}, "properties": {"kind": "camera", "marker": "circle", "marker_radius": 6, "camera": "Vellara_JN1_FIX_1", "assigned_node_id": "4294218111", "node_x": 3601.52, "node_y": 2871.51, "distance_m": 136.194542206562}}, {"type": "Feature", "geometry": {"type": "Point", "coordinates": [77.6069, 12.9663]}, "properties": {"kind": "camera", "marker": "circle", "marker_radius": 6, "camera": "Vellara_JN2_PTZ_1", "assigned_node_id": "cluster_10043357422_10120806056_12460929706_13507201648_#3more", "node_x": 3591.64, "node_y": 3013.23, "distance_m": 24.274073641461687}}, {"type": "Feature", "geometry": {"type": "Point", "coordinates": [77.5969, 12.9648]}, "properties": {"kind": "camera", "marker": "circle", "marker_radius": 6, "camera": "Richmond_Crlc_JN1_FIX_1", "assigned_node_id": "1067781007", "node_x": 2533.17, "node_y": 2856.05, "distance_m": 8.221438704066628}}, {"type": "Feature", "geometry": {"type": "Point", "coordinates": [77.5969, 12.9648]}, "properties": {"kind": "camera", "marker": "circle", "marker_radius": 6, "camera": "Richmond_Crlc_JN2_FIX_1", "assigned_node_id": "13321896550", "node_x": 2538.63, "node_y": 2868.58, "distance_m": 20.688498448060393}}, {"type": "Feature", "geometry": {"type": "Point", "coordinates": [77.5971, 12.965]}, "properties": {"kind": "camera", "marker": "circle", "marker_radius": 6, "camera": "Richmond_Crlc_JN3_FIX_1", "assigned_node_id": "428435133", "node_x": 2555.44, "node_y": 2867.99, "distance_m": 10.50589761735015}}, {"type": "Feature", "geometry": {"type": "Point", "coordinates": [77.5968, 12.965]}, "properties": {"kind": "camera", "marker": "circle", "marker_radius": 6, "camera": "Richmond_Crlc_JN4_FIX_1", "assigned_node_id": "428435131", "node_x": 2520.1, "node_y": 2869.25, "distance_m": 7.3735521331752025}}, {"type": "Feature", "geometry": {"type": "Point", "coordinates": [77.5948, 12.9623]}, "properties": {"kind": "camera", "marker": "circle", "marker_radius": 6, "camera": "KH_Rd_Cmg_frm_Mission_Rd_JN1_FIX_1", "assigned_node_id": "6991440387", "node_x": 2302.48, "node_y": 2582.5, "distance_m": 9.39928673418165}}, {"type": "Feature", "geometry": {"type": "Point", "coordinates": [77.5946, 12.9624]}, "properties": {"kind": "camera", "marker": "circle", "marker_radius": 6, "camera": "KH_Rd_Cmg_frm_Mission_Rd_JN2_FIX_1", "assigned_node_id": "cluster_1067789550_248455441_428457189_6894860920", "node_x": 2273.23, "node_y": 2568.49, "distance_m": 16.61576573865252}}, {"type": "Feature", "geometry": {"type": "Point", "coordinates": [77.5946, 12.9624]}, "properties": {"kind": "camera", "marker": "circle", "marker_radius": 6, "camera": "KH_Rd_Cmg_frm_Mission_Rd_JN2_FIX_2", "assigned_node_id": "12167359660", "node_x": 2286.69, "node_y": 2560.67, "distance_m": 24.722019716539478}}, {"type": "Feature", "geometry": {"type": "Point", "coordinates": [77.5952, 12.9625]}, "properties": {"kind": "camera", "marker": "circle", "marker_radius": 6, "camera": "KH_Rd_Nr_Madhutyres_JN2_FIX_1", "assigned_node_id": "1454651936", "node_x": 2451.43, "node_y": 2720.55, "distance_m": 164.6661076388391}}, {"type": "Feature", "geometry": {"type": "Point", "coordinates": [77.595, 12.9623]}, "properties": {"kind": "camera", "marker": "circle", "marker_radius": 6, "camera": "KH_Rd_JN_Nr_Madhutyres_JN3_FIX_1", "assigned_node_id": "cluster_cluster_1067789502_6894860921_cluster_1067789545_13343865545_13343865547", "node_x": 2333.28, "node_y": 2591.26, "distance_m": 20.832596577063562}}, {"type": "Feature", "geometry": {"type": "Point", "coordinates": [77.6053, 12.9527]}, "properties": {"kind": "camera", "marker": "circle", "marker_radius": 6, "camera": "Hosuru_Rd_Cmtry_Rd_JN3_PTZ_1", "assigned_node_id": "4294218134", "node_x": 3440.17, "node_y": 1437.9, "distance_m": 85.10894694003761}}, {"type": "Feature", "geometry": {"type": "Point", "coordinates": [77.600497, 12.968037]}, "properties": {"kind": "camera", "marker": "circle", "marker_radius": 6, "camera": "Cash_Phrmcy_JN2_FIX_1", "assigned_node_id": "11496183647", "node_x": 2895.14, "node_y": 3210.32, "distance_m": 18.04976186455444}}, {"type": "Feature", "geometry": {"type": "Point", "coordinates": [77.602365, 12.969294]}, "properties": {"kind": "camera", "marker": "circle", "marker_radius": 6, "camera": "Bishop_Ctn_Grls_Schl_RsdncyRd_JN2_FIX_1", "assigned_node_id": "248455468", "node_x": 3117.95, "node_y": 3369.65, "distance_m": 14.396270686323266}}, {"type": "Feature", "geometry": {"type": "Point", "coordinates": [77.60481, 12.970997]}, "properties": {"kind": "camera", "marker": "circle", "marker_radius": 6, "camera": "Ashirvadam_Crlc_RsdncyRd_JN1_FIX_1", "assigned_node_id": "248459877", "node_x": 3517.94, "node_y": 3601.57, "distance_m": 150.63265891070395}}, {"type": "Feature", "geometry": {"type": "Point", "coordinates": [77.604808, 12.970998]}, "properties": {"kind": "camera", "marker": "circle", "marker_radius": 6, "camera": "Ashirvadam_Crlc_RsdncyRd_JN2_FIX_1", "assigned_node_id": "60952254", "node_x": 3377.33, "node_y": 3536.44, "distance_m": 10.67586112365937}}, {"type": "Feature", "geometry": {"type": "Point", "coordinates": [77.597344, 12.983846]}, "properties": {"kind": "camera", "marker": "circle", "marker_radius": 6, "camera": "Balekundri_Circle_HD_1", "assigned_node_id": "663596611", "node_x": 2529.22, "node_y": 4937.99, "distance_m": 32.77573462812908}}, {"type": "Feature", "geometry": {"type": "Point", "coordinates": [77.600936, 12.979886]}, "properties": {"kind": "camera", "marker": "circle", "marker_radius": 6, "camera": "Cubbon_Rd_BRV_FIX_1", "assigned_node_id": "cluster_10075533192_10075533193_10684915913_10684915914_#1more", "node_x": 3113.43, "node_y": 4460.38, "distance_m": 179.17181220214457}}, {"type": "Feature", "geometry": {"type": "Point", "coordinates": [77.600936, 12.979886]}, "properties": {"kind": "camera", "marker": "circle", "marker_radius": 6, "camera": "Cubbon_Rd_BRV_PTZ_1", "assigned_node_id": "254665681", "node_x": 3159.84, "node_y": 4623.72, "distance_m": 233.97623292864347}}, {"type": "Feature", "geometry": {"type": "Point", "coordinates": [77.610067, 12.98094277]}, "properties": {"kind": "camera", "marker": "circle", "marker_radius": 6, "camera": "Kamrarj_Rd_Cubbon_Rd_FIX_1", "assigned_node_id": "cluster_10123663917_12691279976_1837445457", "node_x": 3938.25, "node_y": 4658.3, "distance_m": 4.745180513115115}}, {"type": "Feature", "geometry": {"type": "Point", "coordinates": [77.610067, 12.98094277]}, "properties": {"kind": "camera", "marker": "circle", "marker_radius": 6, "camera": "Kamrarj_Rd_Cubbon_Rd_FIX_2", "assigned_node_id": "36967993#1-AddedOnRampNode", "node_x": 3836.38, "node_y": 4690.89, "distance_m": 107.20818558620591}}, {"type": "Feature", "geometry": {"type": "Point", "coordinates": [77.597344, 12.983846]}, "properties": {"kind": "camera", "marker": "circle", "marker_radius": 6, "camera": "Balekundri_Circle_FIX_1", "assigned_node_id": "249082069", "node_x": 2593.67, "node_y": 4972.74, "distance_m": 42.74314467764081}}, {"type": "Feature", "geometry": {"type": "Point", "coordinates": [77.597344, 12.983846]}, "properties": {"kind": "camera", "marker": "circle", "marker_radius": 6, "camera": "Balekundri_Circle_FIX_2", "assigned_node_id": "clustercluster12484332871_1523537403_cluster_12803586900_12803624101_12827961143_9642156101_cluster_10601663791_12433045764", "node_x": 2526.5, "node_y": 5017.2, "distance_m": 61.9673353466943}}, {"type": "Feature", "geometry": {"type": "Point", "coordinates": [77.604465, 12.971899]}, "properties": {"kind": "camera", "marker": "circle", "marker_radius": 6, "camera": "MuseumRd_Ganesha_Tmpl_FIX_1", "assigned_node_id": "423784673", "node_x": 3336.65, "node_y": 3635.85, "distance_m": 10.88820968106047}}, {"type": "Feature", "geometry": {"type": "Point", "coordinates": [77.604465, 12.971899]}, "properties": {"kind": "camera", "marker": "circle", "marker_radius": 6, "camera": "MuseumRd_Ganesha_Tmpl_FIX_2", "assigned_node_id": "248459812", "node_x": 3207.07, "node_y": 3750.65, "distance_m": 168.1574662635511}}, {"type": "Feature", "geometry": {"type": "Point", "coordinates": [77.604465, 12.971899]}, "properties": {"kind": "camera", "marker": "circle", "marker_radius": 6, "camera": "MuseumRd_Ganesha_Tmpl_FIX_3", "assigned_node_id": "3355740080", "node_x": 3622.72, "node_y": 3697.22, "distance_m": 288.1592427600386}}, {"type": "Feature", "geometry": {"type": "Point", "coordinates": [77.588652, 12.96767]}, "properties": {"kind": "camera", "marker": "circle", "marker_radius": 6, "camera": "High_Court_Entrance_FIX_1", "assigned_node_id": "428420790", "node_x": 1779.77, "node_y": 3170.39, "distance_m": 152.82144055239752}}, {"type": "Feature", "geometry": {"type": "Point", "coordinates": [77.588652, 12.96767]}, "properties": {"kind": "camera", "marker": "circle", "marker_radius": 6, "camera": "High_Court_Entrance_FIX_2", "assigned_node_id": "663313892", "node_x": 1702.52, "node_y": 3157.93, "distance_m": 75.33423886764486}}, {"type": "Feature", "geometry": {"type": "Point", "coordinates": [77.587471, 12.966803]}, "properties": {"kind": "camera", "marker": "circle", "marker_radius": 6, "camera": "In_Fnt_Halsurgate_PolcStn_PTZ_1", "assigned_node_id": "cluster12128943145_287793596_37898955#0-AddedOnRampNode", "node_x": 1491.43, "node_y": 3069.6, "distance_m": 10.458005703702511}}, {"type": "Feature", "geometry": {"type": "Point", "coordinates": [77.587471, 12.966803]}, "properties": {"kind": "camera", "marker": "circle", "marker_radius": 6, "camera": "In_Fnt_Halsurgate_PolcStn_HD_1", "assigned_node_id": "cluster245615180_249081348_cluster_12759084951_663313887", "node_x": 1601.52, "node_y": 3151.18, "distance_m": 134.05066043822734}}, {"type": "Feature", "geometry": {"type": "Point", "coordinates": [77.587786, 12.966652]}, "properties": {"kind": "camera", "marker": "circle", "marker_radius": 6, "camera": "Bbmp_Bus_Stop_FIX_1", "assigned_node_id": "286679311", "node_x": 1551.04, "node_y": 3068.77, "distance_m": 27.21054456661659}}, {"type": "Feature", "geometry": {"type": "Point", "coordinates": [77.587786, 12.966652]}, "properties": {"kind": "camera", "marker": "circle", "marker_radius": 6, "camera": "Bbmp_Bus_Stop_FIX_2", "assigned_node_id": "663313886", "node_x": 1656.08, "node_y": 3105.28, "distance_m": 134.82602656726695}}, {"type": "Feature", "geometry": {"type": "Point", "coordinates": [77.586448, 12.9658]}, "properties": {"kind": "camera", "marker": "circle", "marker_radius": 6, "camera": "NR_Sqr_FIX_1", "assigned_node_id": "12111889684", "node_x": 1369.12, "node_y": 2956.09, "distance_m": 21.46665576914636}}, {"type": "Feature", "geometry": {"type": "Point", "coordinates": [77.583675, 12.971005]}, "properties": {"kind": "camera", "marker": "circle", "marker_radius": 6, "camera": "13th_Crs_Kandaya_Bhavana_FIX_1", "assigned_node_id": "429230970", "node_x": 791.59, "node_y": 3685.0, "distance_m": 332.85442011578306}}, {"type": "Feature", "geometry": {"type": "Point", "coordinates": [77.583675, 12.971005]}, "properties": {"kind": "camera", "marker": "circle", "marker_radius": 6, "camera": "13th_Crs_Kandaya_Bhavana_FIX_2", "assigned_node_id": "cluster1087824452_cluster_1087824504_1285102586", "node_x": 856.96, "node_y": 3721.6, "distance_m": 300.0345726627605}}, {"type": "Feature", "geometry": {"type": "Point", "coordinates": [77.587037, 12.976027]}, "properties": {"kind": "camera", "marker": "circle", "marker_radius": 6, "camera": "KR_Circle_JN_FIX_1", "assigned_node_id": "12141911062", "node_x": 1443.93, "node_y": 4073.0, "distance_m": 11.220173239836264}}, {"type": "Feature", "geometry": {"type": "Point", "coordinates": [77.587037, 12.976027]}, "properties": {"kind": "camera", "marker": "circle", "marker_radius": 6, "camera": "KR_Circle_HD_1", "assigned_node_id": "12141911057", "node_x": 1454.0, "node_y": 4085.84, "distance_m": 11.581574333767254}}, {"type": "Feature", "geometry": {"type": "Point", "coordinates": [77.613845, 12.973598]}, "properties": {"kind": "camera", "marker": "circle", "marker_radius": 6, "camera": "WEB_FIX_1", "assigned_node_id": "cluster_10075533183_11432437448_11432458994_11432458996", "node_x": 4360.27, "node_y": 3858.91, "distance_m": 14.79311712714723}}, {"type": "Feature", "geometry": {"type": "Point", "coordinates": [77.588738, 12.986892]}, "properties": {"kind": "camera", "marker": "circle", "marker_radius": 6, "camera": "Old_Hgh_Grnd_Ps_FIX_1", "assigned_node_id": "152051153#3-AddedOffRampNode", "node_x": 1686.03, "node_y": 5003.01, "distance_m": 294.33184454439635}}, {"type": "Feature", "geometry": {"type": "Point", "coordinates": [77.588738, 12.986892]}, "properties": {"kind": "camera", "marker": "circle", "marker_radius": 6, "camera": "Old_Hgh_Grnd_Ps_FIX_2", "assigned_node_id": "10121158732", "node_x": 1707.53, "node_y": 5188.6, "distance_m": 136.28433696864553}}, {"type": "Feature", "geometry": {"type": "Point", "coordinates": [77.588738, 12.986892]}, "properties": {"kind": "camera", "marker": "circle", "marker_radius": 6, "camera": "Old_Hgh_Grnd_Ps_FIX_3", "assigned_node_id": "cluster_1363295017_cluster_12099941385_665045371_cluster_12099941393_1307598719", "node_x": 1624.41, "node_y": 5250.3, "distance_m": 39.480333213618515}}, {"type": "Feature", "geometry": {"type": "Point", "coordinates": [77.592744, 12.989647]}, "properties": {"kind": "camera", "marker": "circle", "marker_radius": 6, "camera": "Chandhrika_Hotel_PTZ_1", "assigned_node_id": "12135211599", "node_x": 2055.24, "node_y": 5599.28, "distance_m": 8.620071180228715}}, {"type": "Feature", "geometry": {"type": "Point", "coordinates": [77.592744, 12.989647]}, "properties": {"kind": "camera", "marker": "circle", "marker_radius": 6, "camera": "Chandhrika_Hotel_FIX_2", "assigned_node_id": "3751686654", "node_x": 1806.95, "node_y": 5299.33, "distance_m": 383.0070114066313}}, {"type": "Feature", "geometry": {"type": "Point", "coordinates": [77.592744, 12.989647]}, "properties": {"kind": "camera", "marker": "circle", "marker_radius": 6, "camera": "Chandhrika_Hotel_FIX_3", "assigned_node_id": "12185484353", "node_x": 1596.32, "node_y": 5689.07, "distance_m": 459.5083980584918}}, {"type": "Feature", "geometry": {"type": "Point", "coordinates": [77.592744, 12.989647]}, "properties": {"kind": "camera", "marker": "circle", "marker_radius": 6, "camera": "Chandhrika_Hotel_FIX_1", "assigned_node_id": "263156256", "node_x": 2111.91, "node_y": 5163.34, "distance_m": 439.5280428876915}}, {"type": "Feature", "geometry": {"type": "Point", "coordinates": [77.587019, 12.98831]}, "properties": {"kind": "camera", "marker": "circle", "marker_radius": 6, "camera": "Seven_Minister_FIX_1", "assigned_node_id": "11668359723", "node_x": 1596.76, "node_y": 5684.07, "distance_m": 294.3952148511221}}, {"type": "Feature", "geometry": {"type": "Point", "coordinates": [77.587019, 12.98831]}, "properties": {"kind": "camera", "marker": "circle", "marker_radius": 6, "camera": "Seven_Minister_FIX_2", "assigned_node_id": "1312448620#2-AddedOnRampNode", "node_x": 1293.11, "node_y": 5640.49, "distance_m": 237.9028853128446}}, {"type": "Feature", "geometry": {"type": "Point", "coordinates": [77.593755, 12.988759]}, "properties": {"kind": "camera", "marker": "circle", "marker_radius": 6, "camera": "Balabruie_Guest_House_FIX_1", "assigned_node_id": "316662057", "node_x": 2303.03, "node_y": 5297.11, "distance_m": 250.38824773913132}}, {"type": "Feature", "geometry": {"type": "Point", "coordinates": [77.593755, 12.988759]}, "properties": {"kind": "camera", "marker": "circle", "marker_radius": 6, "camera": "Balabruie_Guest_House_FIX_2", "assigned_node_id": "319889847", "node_x": 2145.45, "node_y": 5501.31, "distance_m": 12.015427737564229}}, {"type": "Feature", "geometry": {"type": "Point", "coordinates": [77.584895, 12.96388]}, "properties": {"kind": "camera", "marker": "circle", "marker_radius": 6, "camera": "Dasarappa_Hssptl_Entrance_FIX_1", "assigned_node_id": "429230952", "node_x": 1206.29, "node_y": 2721.34, "distance_m": 23.5478876000782}}, {"type": "Feature", "geometry": {"type": "Point", "coordinates": [77.584895, 12.96388]}, "properties": {"kind": "camera", "marker": "circle", "marker_radius": 6, "camera": "Dasarappa_Hssptl_Entrance_FIX_2", "assigned_node_id": "1739362364", "node_x": 1148.84, "node_y": 2710.25, "distance_m": 79.53344066921103}}, {"type": "Feature", "geometry": {"type": "Point", "coordinates": [77.584895, 12.96388]}, "properties": {"kind": "camera", "marker": "circle", "marker_radius": 6, "camera": "Dasarappa_Hssptl_Entrance_FIX_3", "assigned_node_id": "320644590", "node_x": 1125.11, "node_y": 2733.71, "distance_m": 98.6038161095476}}, {"type": "Feature", "geometry": {"type": "Point", "coordinates": [77.584205, 12.965268]}, "properties": {"kind": "camera", "marker": "circle", "marker_radius": 6, "camera": "OTC_Rd_Beauty_Centre_FIX_1", "assigned_node_id": "249087934", "node_x": 1149.71, "node_y": 2890.07, "distance_m": 2.5203694415753666}}, {"type": "Feature", "geometry": {"type": "Point", "coordinates": [77.584205, 12.965268]}, "properties": {"kind": "camera", "marker": "circle", "marker_radius": 6, "camera": "OTC_Rd_Beauty_Centre_FIX_2", "assigned_node_id": "111867007-AddedOffRampNode", "node_x": 1272.53, "node_y": 2930.23, "distance_m": 131.59929692585024}}, {"type": "Feature", "geometry": {"type": "Point", "coordinates": [77.586546, 12.965679]}, "properties": {"kind": "camera", "marker": "circle", "marker_radius": 6, "camera": "NR_Square_FIX_1", "assigned_node_id": "cluster12128943147_287793735_cluster_10044013422_665062617_665062618", "node_x": 1491.56, "node_y": 3170.2, "distance_m": 249.10552219153152}}, {"type": "Feature", "geometry": {"type": "Point", "coordinates": [77.586546, 12.965679]}, "properties": {"kind": "camera", "marker": "circle", "marker_radius": 6, "camera": "NR_Square_FIX_2", "assigned_node_id": "249087938", "node_x": 1426.09, "node_y": 2971.38, "distance_m": 41.68823171449332}}, {"type": "Feature", "geometry": {"type": "Point", "coordinates": [77.586546, 12.965679]}, "properties": {"kind": "camera", "marker": "circle", "marker_radius": 6, "camera": "NR_Square_FIX_3", "assigned_node_id": "cluster_12128921370_12128921371", "node_x": 1422.16, "node_y": 2924.86, "distance_m": 25.12922417893008}}, {"type": "Feature", "geometry": {"type": "Point", "coordinates": [77.585334, 12.964051]}, "properties": {"kind": "camera", "marker": "circle", "marker_radius": 6, "camera": "Townhall_FIX_1", "assigned_node_id": "1568922443", "node_x": 1236.0, "node_y": 2667.58, "distance_m": 95.75152743232678}}, {"type": "Feature", "geometry": {"type": "Point", "coordinates": [77.585334, 12.964051]}, "properties": {"kind": "camera", "marker": "circle", "marker_radius": 6, "camera": "Townhall_FIX_2", "assigned_node_id": "cluster_12466406368_12466406369", "node_x": 1595.27, "node_y": 2424.15, "distance_m": 464.369975168147}}, {"type": "Feature", "geometry": {"type": "Point", "coordinates": [77.585334, 12.964051]}, "properties": {"kind": "camera", "marker": "circle", "marker_radius": 6, "camera": "Townhall_HD_1", "assigned_node_id": "cluster_12128921387_12128921388", "node_x": 1140.47, "node_y": 2472.71, "distance_m": 312.5633785853411}}, {"type": "Feature", "geometry": {"type": "Point", "coordinates": [77.585334, 12.964051]}, "properties": {"kind": "camera", "marker": "circle", "marker_radius": 6, "camera": "Townhall_PTZ_1", "assigned_node_id": "cluster_12077162815_3309317524", "node_x": 1262.33, "node_y": 2739.93, "distance_m": 18.896505895046122}}, {"type": "Feature", "geometry": {"type": "Point", "coordinates": [77.58734, 12.96498]}, "properties": {"kind": "camera", "marker": "circle", "marker_radius": 6, "camera": "Kalinga_Roa_Bus_Std_FIX_1", "assigned_node_id": "3356616807", "node_x": 1575.15, "node_y": 2795.94, "distance_m": 109.30351886098308}}, {"type": "Feature", "geometry": {"type": "Point", "coordinates": [77.58734, 12.96498]}, "properties": {"kind": "camera", "marker": "circle", "marker_radius": 6, "camera": "Kalinga_Roa_Bus_Std_FIX_2", "assigned_node_id": "12128921373", "node_x": 1693.77, "node_y": 2681.02, "distance_m": 273.9559649503002}}, {"type": "Feature", "geometry": {"type": "Point", "coordinates": [77.58734, 12.96498]}, "properties": {"kind": "camera", "marker": "circle", "marker_radius": 6, "camera": "Kalinga_Roa_Bus_Std_FIX_3", "assigned_node_id": "52033011#4-AddedOnRampNode", "node_x": 1699.54, "node_y": 3015.22, "distance_m": 261.50957505690667}}, {"type": "Feature", "geometry": {"type": "Point", "coordinates": [77.596661, 12.964917]}, "properties": {"kind": "camera", "marker": "circle", "marker_radius": 6, "camera": "Richmond_Circle_JN_FIX_1", "assigned_node_id": "12119649210", "node_x": 2514.87, "node_y": 2856.09, "distance_m": 17.53297862260457}}, {"type": "Feature", "geometry": {"type": "Point", "coordinates": [77.596661, 12.964917]}, "properties": {"kind": "camera", "marker": "circle", "marker_radius": 6, "camera": "Richmond_Circle_PTZ_1", "assigned_node_id": "248455457", "node_x": 2509.67, "node_y": 2890.34, "distance_m": 27.20536875245135}}, {"type": "Feature", "geometry": {"type": "Point", "coordinates": [77.594696, 12.966924]}, "properties": {"kind": "camera", "marker": "circle", "marker_radius": 6, "camera": "RRMR_Rd_FIX_1", "assigned_node_id": "11425338077", "node_x": 2311.79, "node_y": 3125.71, "distance_m": 49.19531338816648}}, {"type": "Feature", "geometry": {"type": "Point", "coordinates": [77.594696, 12.966924]}, "properties": {"kind": "camera", "marker": "circle", "marker_radius": 6, "camera": "RRMR_Rd_FIX_2", "assigned_node_id": "1469034722", "node_x": 2320.25, "node_y": 3079.76, "distance_m": 36.43069003328338}}, {"type": "Feature", "geometry": {"type": "Point", "coordinates": [77.594696, 12.966924]}, "properties": {"kind": "camera", "marker": "circle", "marker_radius": 6, "camera": "RRMR_Rd_PTZ_1", "assigned_node_id": "246167200", "node_x": 2310.7, "node_y": 3129.63, "distance_m": 51.92187372535111}}, {"type": "Feature", "geometry": {"type": "Point", "coordinates": [77.594667, 12.966896]}, "properties": {"kind": "camera", "marker": "circle", "marker_radius": 6, "camera": "Hudson_Circle_FIX_1", "assigned_node_id": "1469034694", "node_x": 2295.6, "node_y": 3074.39, "distance_m": 16.32575441302605}}, {"type": "Feature", "geometry": {"type": "Point", "coordinates": [77.594667, 12.966896]}, "properties": {"kind": "camera", "marker": "circle", "marker_radius": 6, "camera": "Hudson_Circle_HD_1", "assigned_node_id": "cluster_11425338076_458263319", "node_x": 2276.07, "node_y": 3100.46, "distance_m": 19.27112371215751}}, {"type": "Feature", "geometry": {"type": "Point", "coordinates": [77.594667, 12.966869]}, "properties": {"kind": "camera", "marker": "circle", "marker_radius": 6, "camera": "Mission_Rd_Bus_Stp_HD_1", "assigned_node_id": "1308725870#2-AddedOnRampNode", "node_x": 2355.64, "node_y": 2986.86, "distance_m": 118.40312857874585}}, {"type": "Feature", "geometry": {"type": "Point", "coordinates": [77.594667, 12.966869]}, "properties": {"kind": "camera", "marker": "circle", "marker_radius": 6, "camera": "Mission_Rd_Bus_Stp_HD_2", "assigned_node_id": "498553874#0-AddedOffRampNode", "node_x": 2347.11, "node_y": 2988.78, "distance_m": 111.67347627828686}}, {"type": "Feature", "geometry": {"type": "Point", "coordinates": [77.589225, 12.968043]}, "properties": {"kind": "camera", "marker": "circle", "marker_radius": 6, "camera": "KB_Rd_FIX_1", "assigned_node_id": "428420786", "node_x": 1719.91, "node_y": 3232.26, "distance_m": 42.67376614280878}}, {"type": "Feature", "geometry": {"type": "Point", "coordinates": [77.584199, 12.978156]}, "properties": {"kind": "camera", "marker": "circle", "marker_radius": 6, "camera": "Maharani_Cllge_Nr_Bridge_FIX_1", "assigned_node_id": "597084152", "node_x": 1134.96, "node_y": 4311.92, "distance_m": 5.547430710505731}}, {"type": "Feature", "geometry": {"type": "Point", "coordinates": [77.584199, 12.978156]}, "properties": {"kind": "camera", "marker": "circle", "marker_radius": 6, "camera": "Maharani_Cllge_Nr_Bridge_FIX_2", "assigned_node_id": "597083726", "node_x": 1175.92, "node_y": 4281.45, "distance_m": 56.2271875547973}}, {"type": "Feature", "geometry": {"type": "Point", "coordinates": [77.583565, 12.976815]}, "properties": {"kind": "camera", "marker": "circle", "marker_radius": 6, "camera": "Oni_Anjaneya_Tmpl_FIX_1", "assigned_node_id": "597084149", "node_x": 1102.85, "node_y": 4203.21, "distance_m": 52.18088053721498}}, {"type": "Feature", "geometry": {"type": "Point", "coordinates": [77.583565, 12.976815]}, "properties": {"kind": "camera", "marker": "circle", "marker_radius": 6, "camera": "Oni_Anjaneya_Tmpl_FIX_2", "assigned_node_id": "234946738#0-AddedOnRampNode", "node_x": 1054.3, "node_y": 4116.87, "distance_m": 51.73546954874486}}, {"type": "Feature", "geometry": {"type": "Point", "coordinates": [77.596389, 12.981506]}, "properties": {"kind": "camera", "marker": "circle", "marker_radius": 6, "camera": "CTO_Circle_JN_PTZ_1", "assigned_node_id": "3641907747", "node_x": 2441.27, "node_y": 4684.03, "distance_m": 19.76953290336206}}]}