{"type": "FeatureCollection", "features": [{"type": "Feature", "geometry": {"type": "LineString", "coordinates": [[77.58861706444875, 12.990528122813991], [77.58861722996004, 12.990526314289887]]}, "properties": {"kind": "edge", "edge_id": "-1316590794", "from": "12185484353", "to": "11668359723", "type": "highway.tertiary", "priority": "10", "numLanes": null, "speed": null, "length": null, "in_flow_component": true}}, {"type": "Feature", "geometry": {"type": "LineString", "coordinates": [[77.60703887738595, 12.971450978677552], [77.60710131110957, 12.971431109876931], [77.60714097423802, 12.971418425698817]]}, "properties": {"kind": "edge", "edge_id": "-1466165198", "from": "cluster1232963659_5372824878", "to": "1232963668", "type": "highway.tertiary", "priority": "10", "numLanes": null, "speed": null, "length": null, "in_flow_component": true}}, {"type": "Feature", "geometry": {"type": "LineString", "coordinates": [[77.59330380244596, 12.985714489897747], [77.59323142710087, 12.985744483540714], [77.59298999038506, 12.985853227395246], [77.5928057720238, 12.985936194243552], [77.59229612059974, 12.986165602588992], [77.59215224800661, 12.986230368828936], [77.59207256397613, 12.986266307445648], [77.59188293443604, 12.986351676661629], [77.59183800290955, 12.986371910126426], [77.59182709079211, 12.986376807190556], [77.59157483170044, 12.986490355766561], [77.59119227049044, 12.986662571903645], [77.59090975107688, 12.98678979258686], [77.59069866379963, 12.986884861141375], [77.59055479117691, 12.98694971698284], [77.59050738256695, 12.986970968733887]]}, "properties": {"kind": "edge", "edge_id": "-172920275", "from": "263156256", "to": "3751686654", "type": "highway.tertiary", "priority": "10", "numLanes": null, "speed": null, "length": null, "in_flow_component": true}}, {"type": "Feature", "geometry": {"type": "LineString", "coordinates": [[77.60714097423802, 12.971418425698817], [77.6075636013299, 12.971275693731913], [77.6078661332657, 12.971162171534369], [77.6080846535666, 12.971075239093985], [77.60820800066784, 12.971031089498467], [77.60858276503642, 12.970918739424938], [77.60891505455972, 12.970805640458753], [77.60902856661322, 12.970772430272927], [77.60914538323809, 12.970738102783828], [77.60920212556893, 12.970720187822556], [77.60923876108066, 12.970708708186175], [77.60972181011545, 12.970556694122557]]}, "properties": {"kind": "edge", "edge_id": "-172955372", "from": "1232963668", "to": "11854316023", "type": "highway.tertiary", "priority": "10", "numLanes": null, "speed": null, "length": null, "in_flow_component": true}}, {"type": "Feature", "geometry": {"type": "LineString", "coordinates": [[77.610287877703, 12.970415500328784], [77.61029194341761, 12.970407870763239], [77.61030246615688, 12.970401079823118]]}, "properties": {"kind": "edge", "edge_id": "1015024215", "from": "248459878", "to": "11854316021", "type": "highway.primary", "priority": "12", "numLanes": null, "speed": null, "length": null, "in_flow_component": true}}, {"type": "Feature", "geometry": {"type": "LineString", "coordinates": [[77.6102884637695, 12.970401039657762], [77.61015968492725, 12.970410101419324], [77.6101466158757, 12.970411226332253], [77.60975797794711, 12.970526879592466], [77.60971229818414, 12.970545587091934]]}, "properties": {"kind": "edge", "edge_id": "1015024216#0", "from": "248459878", "to": "11854316023", "type": "highway.tertiary", "priority": "10", "numLanes": null, "speed": null, "length": null, "in_flow_component": true}}, {"type": "Feature", "geometry": {"type": "LineString", "coordinates": [[77.61030051243272, 12.970443379688806], [77.6103005856909, 12.970441572104944]]}, "properties": {"kind": "edge", "edge_id": "1015024219", "from": "9363518171", "to": "248459878", "type": "highway.primary", "priority": "12", "numLanes": null, "speed": null, "length": null, "in_flow_component": true}}, {"type": "Feature", "geometry": {"type": "LineString", "coordinates": [[77.5853534800753, 12.977314936598146], [77.58553834940317, 12.97718824272818], [77.58554758835206, 12.977181917111398], [77.58558829368118, 12.977153957376432], [77.58578862052087, 12.97701653939747], [77.58595819249618, 12.976898309092071], [77.58601471644988, 12.97685889897216], [77.58605434434168, 12.976833660217942], [77.58642738689312, 12.976597042732022], [77.58666683470125, 12.976421109920643], [77.58693443317065, 12.97622366603902], [77.58699565879543, 12.976175716650756], [77.58702016735556, 12.976158307451], [77.58704988893594, 12.97613723262368]]}, "properties": {"kind": "edge", "edge_id": "1054230460", "from": "1054230460-AddedOnRampNode", "to": "10121158807", "type": "highway.primary", "priority": "12", "numLanes": null, "speed": null, "length": null, "in_flow_component": true}}, {"type": "Feature", "geometry": {"type": "LineString", "coordinates": [[77.58460798451665, 12.977845712090746], [77.58533106722855, 12.97734795435399], [77.58536198564549, 12.977326777425532]]}, "properties": {"kind": "edge", "edge_id": "1054230460-AddedOnRampEdge", "from": "597083726", "to": "1054230460-AddedOnRampNode", "type": "highway.primary", "priority": "12", "numLanes": null, "speed": null, "length": null, "in_flow_component": true}}, {"type": "Feature", "geometry": {"type": "LineString", "coordinates": [[77.60682281486845, 12.966239017170247], [77.60684649740018, 12.966133711353729], [77.60685090536437, 12.966052810489373], [77.6068603590451, 12.9658549556407], [77.6068605574891, 12.965705978567524], [77.60686868247252, 12.965283274086866], [77.60680952182526, 12.96487434336612]]}, "properties": {"kind": "edge", "edge_id": "1056563196#0", "from": "cluster_10043357422_10120806056_12460929706_13507201648_#3more", "to": "4294218111", "type": "highway.primary", "priority": "12", "numLanes": null, "speed": null, "length": null, "in_flow_component": true}}, {"type": "Feature", "geometry": {"type": "LineString", "coordinates": [[77.60480710360216, 12.970901560044798], [77.60489867832327, 12.970946627418462], [77.6049263534722, 12.9709592692677], [77.60527410562437, 12.971118854931017], [77.60551569514516, 12.971230176429243], [77.60602737578994, 12.971438620278686], [77.60610837888254, 12.971476927028172]]}, "properties": {"kind": "edge", "edge_id": "1096797091#0", "from": "60952254", "to": "248459877", "type": "highway.primary", "priority": "12", "numLanes": null, "speed": null, "length": null, "in_flow_component": true}}, {"type": "Feature", "geometry": {"type": "LineString", "coordinates": [[77.60526291133108, 12.952773685385022], [77.60525654999394, 12.95271114141828], [77.60523773311886, 12.952487189009663], [77.6051950501913, 12.951996602489666], [77.60518864754822, 12.951938937439737]]}, "properties": {"kind": "edge", "edge_id": "1096873562", "from": "cluster_10043357420_4294224252", "to": "4294218134", "type": "highway.primary", "priority": "12", "numLanes": null, "speed": null, "length": null, "in_flow_component": true}}, {"type": "Feature", "geometry": {"type": "LineString", "coordinates": [[77.61118395053627, 12.974425567186335], [77.61124526528286, 12.974413206968338], [77.61283109308845, 12.974033017398142], [77.6137724103047, 12.973807820404366], [77.6137903291883, 12.97380357489831], [77.61385979880536, 12.973787066746628]]}, "properties": {"kind": "edge", "edge_id": "1101271052#0", "from": "cluster_11854316017_11854316018_11854316019_4044263600", "to": "cluster_10075533183_11432437448_11432458994_11432458996", "type": "highway.primary", "priority": "12", "numLanes": null, "speed": null, "length": null, "in_flow_component": true}}, {"type": "Feature", "geometry": {"type": "LineString", "coordinates": [[77.59672757733395, 12.96467475747943], [77.59673455729491, 12.964690497911466], [77.59679925006888, 12.96483512442106]]}, "properties": {"kind": "edge", "edge_id": "1109915137#0", "from": "248455447", "to": "12119649210", "type": "highway.primary", "priority": "12", "numLanes": null, "speed": null, "length": null, "in_flow_component": true}}, {"type": "Feature", "geometry": {"type": "LineString", "coordinates": [[77.61819658320175, 12.972687251951998], [77.61797582185743, 12.972735729429521], [77.61760858952505, 12.972819197907642], [77.61759590779961, 12.97282212615299], [77.61748279490325, 12.972849373462456], [77.6170896582582, 12.972939877635982], [77.61692826641972, 12.972975108954024], [77.6167680936706, 12.973012405778967], [77.61633887788149, 12.97310598220216], [77.61619461520786, 12.973140769744438], [77.61586373222481, 12.97322079865091], [77.61549429012624, 12.973304557641077], [77.61516790905078, 12.973374693170763], [77.61512001738461, 12.97338448001601], [77.61501552992797, 12.973408567971905], [77.61438737979474, 12.973550487295274], [77.61416619072692, 12.973602308756634], [77.6141068268014, 12.973616185810842], [77.61405839840363, 12.973627513687983], [77.61397614923567, 12.973646408896263], [77.61395997478441, 12.973650094824775], [77.6139261577923, 12.97365802348894]]}, "properties": {"kind": "edge", "edge_id": "1112419802", "from": "1112419802-AddedOnRampNode", "to": "cluster_10075533183_11432437448_11432458994_11432458996", "type": "highway.primary", "priority": "12", "numLanes": null, "speed": null, "length": null, "in_flow_component": true}}, {"type": "Feature", "geometry": {"type": "LineString", "coordinates": [[77.61909686209825, 12.97249416052066], [77.61903929569509, 12.972503684097115], [77.6189502716147, 12.972517680175438], [77.61846259273848, 12.972614107099723], [77.61839743039874, 12.972628404800588], [77.61819339610678, 12.972673190700364]]}, "properties": {"kind": "edge", "edge_id": "1112419802-AddedOnRampEdge", "from": "334473774", "to": "1112419802-AddedOnRampNode", "type": "highway.primary", "priority": "12", "numLanes": null, "speed": null, "length": null, "in_flow_component": true}}, {"type": "Feature", "geometry": {"type": "LineString", "coordinates": [[77.58422820415561, 12.96526726248806], [77.58453275976888, 12.965366687895703], [77.58473619701476, 12.965433057646836], [77.58476364843251, 12.965442000057681], [77.58513771078508, 12.965564042989339], [77.58519210460052, 12.965577234877147], [77.58536322887434, 12.96561880945984]]}, "properties": {"kind": "edge", "edge_id": "111867007", "from": "249087934", "to": "111867007-AddedOffRampNode", "type": "highway.secondary", "priority": "11", "numLanes": null, "speed": null, "length": null, "in_flow_component": true}}, {"type": "Feature", "geometry": {"type": "LineString", "coordinates": [[77.58535959706023, 12.96563284887727], [77.58579632021274, 12.96573900000051], [77.58625150298072, 12.965857524659706]]}, "properties": {"kind": "edge", "edge_id": "111867007-AddedOffRampEdge", "from": "111867007-AddedOffRampNode", "to": "12111889684", "type": "highway.secondary", "priority": "11", "numLanes": null, "speed": null, "length": null, "in_flow_component": true}}, {"type": "Feature", "geometry": {"type": "LineString", "coordinates": [[77.58158038215808, 12.972822658848784], [77.58144188012506, 12.972746969983955], [77.58117777475461, 12.972551104914448], [77.58100367988813, 12.972481008984625]]}, "properties": {"kind": "edge", "edge_id": "113287088#0", "from": "cluster1087824452_cluster_1087824504_1285102586", "to": "429230970", "type": "highway.tertiary", "priority": "10", "numLanes": null, "speed": null, "length": null, "in_flow_component": true}}, {"type": "Feature", "geometry": {"type": "LineString", "coordinates": [[77.58411713003589, 12.961521431555513], [77.5841957000877, 12.961511978436995], [77.58425918226408, 12.961504391640188], [77.58439948815139, 12.961487730367192], [77.58583025474009, 12.961328336936898], [77.5859311116654, 12.961318390867806], [77.58618229131598, 12.96128951478479], [77.5875971843233, 12.961154391568405], [77.58803182722995, 12.96110462724464], [77.58806133094258, 12.961098280842982], [77.5883141880845, 12.96104463186801]]}, "properties": {"kind": "edge", "edge_id": "1148515025#0", "from": "cluster_12128921387_12128921388", "to": "cluster_12466406368_12466406369", "type": "highway.secondary", "priority": "11", "numLanes": null, "speed": null, "length": null, "in_flow_component": true}}, {"type": "Feature", "geometry": {"type": "LineString", "coordinates": [[77.60668945674989, 12.96440196971316], [77.60672176919263, 12.964762655456184], [77.60674900399579, 12.965060332837375], [77.6067553526057, 12.965130375168096], [77.60678886179457, 12.96548210493721], [77.6067814701596, 12.965851409559916], [77.6067690734838, 12.966032038448546]]}, "properties": {"kind": "edge", "edge_id": "1151692614", "from": "2890442001", "to": "cluster_10043357422_10120806056_12460929706_13507201648_#3more", "type": "highway.primary", "priority": "12", "numLanes": null, "speed": null, "length": null, "in_flow_component": true}}, {"type": "Feature", "geometry": {"type": "LineString", "coordinates": [[77.58904033437602, 12.986469368570583], [77.58947281256035, 12.98608218196482], [77.58949698828486, 12.986059264750429], [77.58958119672198, 12.985979826462101]]}, "properties": {"kind": "edge", "edge_id": "115837334#0", "from": "cluster_1363295017_cluster_12099941385_665045371_cluster_12099941393_1307598719", "to": "10121158732", "type": "highway.primary", "priority": "12", "numLanes": null, "speed": null, "length": null, "in_flow_component": true}}, {"type": "Feature", "geometry": {"type": "LineString", "coordinates": [[77.59364445108106, 12.988764426317047], [77.59354487674211, 12.988890004065583], [77.59340271688457, 12.989066599275361], [77.59334191629438, 12.989137854846524], [77.59319501362926, 12.989292453541646], [77.59312965816217, 12.989350925785232], [77.59296006028711, 12.989520205907988], [77.59295395315631, 12.989526500569578], [77.59293854949688, 12.989542464437715], [77.59293552745537, 12.989544211130129], [77.59282265316592, 12.989657725111035]]}, "properties": {"kind": "edge", "edge_id": "1158656974#1", "from": "319889847", "to": "12135211599", "type": "highway.primary", "priority": "12", "numLanes": null, "speed": null, "length": null, "in_flow_component": true}}, {"type": "Feature", "geometry": {"type": "LineString", "coordinates": [[77.59507686215628, 12.986905309857981], [77.5949855323786, 12.987043995688072], [77.59492822431062, 12.987132110791537], [77.59474887279087, 12.98737322166404], [77.59464574920086, 12.987502900548304], [77.59454106346865, 12.987624102734832], [77.59451987153872, 12.987650423611], [77.59449384904751, 12.987681761613704], [77.59448785569087, 12.987690133058381], [77.59444813472994, 12.987741935120733], [77.5943053652471, 12.98791293540655], [77.59427680190996, 12.987948002848944], [77.5942197654528, 12.988017956140672], [77.59410623369627, 12.988165626830089], [77.59410259688228, 12.988170270659204], [77.59402913021086, 12.988263786932679], [77.59397338043405, 12.988333456315617], [77.59394491568862, 12.98836915515672], [77.59369897819835, 12.988692329908835], [77.59364445108106, 12.988764426317047]]}, "properties": {"kind": "edge", "edge_id": "1158656976", "from": "316662057", "to": "319889847", "type": "highway.primary", "priority": "12", "numLanes": null, "speed": null, "length": null, "in_flow_component": true}}, {"type": "Feature", "geometry": {"type": "LineString", "coordinates": [[77.61382583288118, 12.973683785666893], [77.61376215580346, 12.97369924181926], [77.61369306974005, 12.973717191561699], [77.61358638731735, 12.97374283686963], [77.61312390879185, 12.973853636709647], [77.61300821550736, 12.9738809081666], [77.61297026293376, 12.97388978169517], [77.61266930867374, 12.973960291240815], [77.61260628560548, 12.973976643986273], [77.61233754553173, 12.97403571742761], [77.61212663006827, 12.974083459031926]]}, "properties": {"kind": "edge", "edge_id": "1166322819#0", "from": "cluster_10075533183_11432437448_11432458994_11432458996", "to": "334473824", "type": "highway.primary", "priority": "12", "numLanes": null, "speed": null, "length": null, "in_flow_component": true}}, {"type": "Feature", "geometry": {"type": "LineString", "coordinates": [[77.61116347757337, 12.974317542626133], [77.61117585329377, 12.974214699095297], [77.61117818369314, 12.97412026793184], [77.61117943204368, 12.974045722952031], [77.61116888594134, 12.973953227932594], [77.61113601124484, 12.973874960181883], [77.61108561999656, 12.973804186036693]]}, "properties": {"kind": "edge", "edge_id": "1166571294", "from": "cluster_11854316017_11854316018_11854316019_4044263600", "to": "1232953300", "type": "highway.primary", "priority": "12", "numLanes": null, "speed": null, "length": null, "in_flow_component": true}}, {"type": "Feature", "geometry": {"type": "LineString", "coordinates": [[77.59050738256695, 12.986970968733887], [77.58973699233862, 12.986149836286351], [77.58966118388355, 12.986079762446], [77.58963135478788, 12.986046090528768], [77.58958119672198, 12.985979826462101]]}, "properties": {"kind": "edge", "edge_id": "1195630059#0", "from": "3751686654", "to": "10121158732", "type": "highway.tertiary", "priority": "10", "numLanes": null, "speed": null, "length": null, "in_flow_component": true}}, {"type": "Feature", "geometry": {"type": "LineString", "coordinates": [[77.59282265316592, 12.989657725111035], [77.59276956257693, 12.98955761242954], [77.59268358701222, 12.989431266982173], [77.59265441034361, 12.98939840214353], [77.59214106374438, 12.988846196272519], [77.59203793513028, 12.988726978118336], [77.59195768662485, 12.988628671996835], [77.5918688538038, 12.988519881294993], [77.5917691019127, 12.988397557613206], [77.59167868172834, 12.988286704750632], [77.5916321345726, 12.988231156125455], [77.59161983556504, 12.988217817634972], [77.59158396213977, 12.98817878572613], [77.59144752872312, 12.988019425566327], [77.59127900924176, 12.98782198933356], [77.59123382685165, 12.987773654476877], [77.5911252040185, 12.987657562277917], [77.59101331224961, 12.987537166124646], [77.59086052753193, 12.987364507400915], [77.59050738256695, 12.986970968733887]]}, "properties": {"kind": "edge", "edge_id": "1201585648", "from": "12135211599", "to": "3751686654", "type": "highway.tertiary", "priority": "10", "numLanes": null, "speed": null, "length": null, "in_flow_component": true}}, {"type": "Feature", "geometry": {"type": "LineString", "coordinates": [[77.58666955894398, 12.96561919739504], [77.58666600176538, 12.965791970468025], [77.58678149041249, 12.965976479238117]]}, "properties": {"kind": "edge", "edge_id": "1214076611", "from": "cluster_12128921370_12128921371", "to": "249087938", "type": "highway.primary", "priority": "12", "numLanes": null, "speed": null, "length": null, "in_flow_component": true}}, {"type": "Feature", "geometry": {"type": "LineString", "coordinates": [[77.59495398321617, 12.967289372836012], [77.59489880204838, 12.967200302509724], [77.59485138114299, 12.967148918330684], [77.5948040180176, 12.967111988516317], [77.59474412440467, 12.967074822285548], [77.5947049177329, 12.96706048731175], [77.59468206859054, 12.967051229120965], [77.59464336180471, 12.967040683576917]]}, "properties": {"kind": "edge", "edge_id": "1231870395#0", "from": "11425338077", "to": "cluster_11425338076_458263319", "type": "highway.primary_link", "priority": "7", "numLanes": null, "speed": null, "length": null, "in_flow_component": true}}, {"type": "Feature", "geometry": {"type": "LineString", "coordinates": [[77.60972181011545, 12.970556694122557], [77.60923876108066, 12.970708708186175], [77.60920212556893, 12.970720187822556], [77.60914538323809, 12.970738102783828], [77.60902856661322, 12.970772430272927], [77.60891505455972, 12.970805640458753], [77.60858276503642, 12.970918739424938], [77.60820800066784, 12.971031089498467], [77.6080846535666, 12.971075239093985], [77.6078661332657, 12.971162171534369], [77.6075636013299, 12.971275693731913], [77.60714097423802, 12.971418425698817]]}, "properties": {"kind": "edge", "edge_id": "1276784689", "from": "11854316023", "to": "1232963668", "type": "highway.tertiary", "priority": "10", "numLanes": null, "speed": null, "length": null, "in_flow_component": true}}, {"type": "Feature", "geometry": {"type": "LineString", "coordinates": [[77.6097204862056, 12.970571071858664], [77.60976892476047, 12.970560738526327], [77.61013412737907, 12.97046799636493], [77.61015719103285, 12.97046243472005], [77.61017685043704, 12.970457268604669], [77.6102931771605, 12.970428998511887]]}, "properties": {"kind": "edge", "edge_id": "1276784690#0", "from": "11854316023", "to": "248459878", "type": "highway.tertiary", "priority": "10", "numLanes": null, "speed": null, "length": null, "in_flow_component": true}}, {"type": "Feature", "geometry": {"type": "LineString", "coordinates": [[77.60480710360216, 12.970901560044798], [77.60477315353955, 12.970985196092771], [77.60452851174571, 12.971580475440954], [77.60451826991397, 12.97160542227388], [77.60447568786364, 12.97170938154363], [77.60445572210024, 12.971764780933652], [77.60444175273342, 12.971803316514245]]}, "properties": {"kind": "edge", "edge_id": "1307397842#0", "from": "60952254", "to": "423784673", "type": "highway.secondary", "priority": "11", "numLanes": null, "speed": null, "length": null, "in_flow_component": true}}, {"type": "Feature", "geometry": {"type": "LineString", "coordinates": [[77.59497276058661, 12.967332369714912], [77.59498243321072, 12.967296858607458]]}, "properties": {"kind": "edge", "edge_id": "1308725870#0", "from": "246167200", "to": "11425338077", "type": "highway.primary", "priority": "12", "numLanes": null, "speed": null, "length": null, "in_flow_component": true}}, {"type": "Feature", "geometry": {"type": "LineString", "coordinates": [[77.59501097437818, 12.967304253122636], [77.59497935856648, 12.967142492325657], [77.59498457501336, 12.967112536615609], [77.59499726315049, 12.967039141528286], [77.59502116068894, 12.9669007680442], [77.59508450347131, 12.966888572289598]]}, "properties": {"kind": "edge", "edge_id": "1308725870#1", "from": "11425338077", "to": "1469034722", "type": "highway.primary", "priority": "12", "numLanes": null, "speed": null, "length": null, "in_flow_component": true}}, {"type": "Feature", "geometry": {"type": "LineString", "coordinates": [[77.59505605352479, 12.966881086520916], [77.59506697255819, 12.966841407184315], [77.5951094059901, 12.966687219405614], [77.59514074739617, 12.966573796810746], [77.59516729760738, 12.966478038975794], [77.59519702882733, 12.966395891271484], [77.59521309026935, 12.966345771147912], [77.59523096077854, 12.966301324616255], [77.59525251497588, 12.966247897341486], [77.59529203396984, 12.966168000936397], [77.59530442420498, 12.966145833551307], [77.59536962974703, 12.966046799149705]]}, "properties": {"kind": "edge", "edge_id": "1308725870#2-AddedOnRampEdge", "from": "1469034722", "to": "1308725870#2-AddedOnRampNode", "type": "highway.primary", "priority": "12", "numLanes": null, "speed": null, "length": null, "in_flow_component": true}}, {"type": "Feature", "geometry": {"type": "LineString", "coordinates": [[77.59681259796785, 12.964905278334626], [77.59681326052817, 12.964906988246026]]}, "properties": {"kind": "edge", "edge_id": "1308734871", "from": "12119649210", "to": "428435131", "type": "highway.primary", "priority": "12", "numLanes": null, "speed": null, "length": null, "in_flow_component": true}}, {"type": "Feature", "geometry": {"type": "LineString", "coordinates": [[77.58934508409307, 12.967636343915077], [77.58909301022254, 12.967597113778616], [77.58890897883718, 12.967554676671503], [77.58886762331018, 12.967546324845902], [77.58875707580587, 12.967510203200998]]}, "properties": {"kind": "edge", "edge_id": "1311251824#0", "from": "663313892", "to": "cluster245615180_249081348_cluster_12759084951_663313887", "type": "highway.primary", "priority": "12", "numLanes": null, "speed": null, "length": null, "in_flow_component": true}}, {"type": "Feature", "geometry": {"type": "LineString", "coordinates": [[77.58704988893594, 12.97613723262368], [77.58709523515036, 12.976094861852744], [77.58714267709209, 12.97604135792331]]}, "properties": {"kind": "edge", "edge_id": "1311751492", "from": "10121158807", "to": "12141911057", "type": "highway.primary", "priority": "12", "numLanes": null, "speed": null, "length": null, "in_flow_component": true}}, {"type": "Feature", "geometry": {"type": "LineString", "coordinates": [[77.58580597771144, 12.990099977330127], [77.58582935230682, 12.989937306279499], [77.58584135803459, 12.98986003306081], [77.58594535381798, 12.989351264999213], [77.58599381367367, 12.989235684435027], [77.58602132544476, 12.989170091904743], [77.58613051246809, 12.989029333225671], [77.5863806137427, 12.988786889837023], [77.58699463234602, 12.988252625563252], [77.58761393037605, 12.98774803081193], [77.58844703058426, 12.987037037686337], [77.58854872172925, 12.9869643819066], [77.58862342290081, 12.986909792737674], [77.58866464910373, 12.986878665093784], [77.58877848658287, 12.98677797200645]]}, "properties": {"kind": "edge", "edge_id": "1312448620#2", "from": "1312448620#2-AddedOnRampNode", "to": "cluster_1363295017_cluster_12099941385_665045371_cluster_12099941393_1307598719", "type": "highway.primary", "priority": "12", "numLanes": null, "speed": null, "length": null, "in_flow_component": true}}, {"type": "Feature", "geometry": {"type": "LineString", "coordinates": [[77.58858781824148, 12.99052407778969], [77.58858765272997, 12.990525886313813]]}, "properties": {"kind": "edge", "edge_id": "1316590794", "from": "11668359723", "to": "12185484353", "type": "highway.tertiary", "priority": "10", "numLanes": null, "speed": null, "length": null, "in_flow_component": true}}, {"type": "Feature", "geometry": {"type": "LineString", "coordinates": [[77.58704872000541, 12.975926291225823], [77.58705569559564, 12.975950524331402], [77.58709179392724, 12.976002654964692], [77.58714267709209, 12.97604135792331]]}, "properties": {"kind": "edge", "edge_id": "1321767442#1", "from": "12141911062", "to": "12141911057", "type": "highway.primary", "priority": "12", "numLanes": null, "speed": null, "length": null, "in_flow_component": true}}, {"type": "Feature", "geometry": {"type": "LineString", "coordinates": [[77.610287877703, 12.970415500328784], [77.61028701548024, 12.970403493437628], [77.61034934678969, 12.970117837539739], [77.61043509014023, 12.969692277301034], [77.61048875238212, 12.969458655311312], [77.61050315432625, 12.969399878545918], [77.6106642207888, 12.968803809007976], [77.61105486655555, 12.967627334349444], [77.61106951031786, 12.96758291960365], [77.6110962190887, 12.967502969548462], [77.61110427755835, 12.967471901227826], [77.61113798608478, 12.96734770348799], [77.61115883011448, 12.967270703251081], [77.6111655691751, 12.967245610771123]]}, "properties": {"kind": "edge", "edge_id": "132191817#0", "from": "248459878", "to": "cluster_12462507949_13462280316_4903183637_6017833824", "type": "highway.secondary", "priority": "11", "numLanes": null, "speed": null, "length": null, "in_flow_component": true}}, {"type": "Feature", "geometry": {"type": "LineString", "coordinates": [[77.59480005244708, 12.966827265484294], [77.59480628489744, 12.96685087331314], [77.59483013253546, 12.966876473703026], [77.59484952463116, 12.966889922160306], [77.59488593211904, 12.966909705640786], [77.59493276347229, 12.966913123329], [77.59498563150865, 12.966894617684734], [77.59502760264263, 12.966873510414695]]}, "properties": {"kind": "edge", "edge_id": "133467629", "from": "1469034694", "to": "1469034722", "type": "highway.primary_link", "priority": "7", "numLanes": null, "speed": null, "length": null, "in_flow_component": true}}, {"type": "Feature", "geometry": {"type": "LineString", "coordinates": [[77.61121702364512, 12.967286019448087], [77.61115186558615, 12.967486059078894], [77.61109400603272, 12.967670486565808], [77.6110052138578, 12.967936171296367], [77.61072629615435, 12.968811497535109], [77.6105465707886, 12.969420311937347], [77.61053570897602, 12.969465230785028], [77.61043522384828, 12.96992581113787], [77.61041034878653, 12.970049107161671], [77.61039978332128, 12.97010477378636], [77.61039665686555, 12.970122963990534], [77.61039593192397, 12.970177086381051], [77.61042590430142, 12.970224486389505], [77.61045703425162, 12.970259226835502], [77.61051605276612, 12.970274083077934]]}, "properties": {"kind": "edge", "edge_id": "133632532#1", "from": "cluster_12462507949_13462280316_4903183637_6017833824", "to": "1274338614", "type": "highway.secondary", "priority": "11", "numLanes": null, "speed": null, "length": null, "in_flow_component": true}}, {"type": "Feature", "geometry": {"type": "LineString", "coordinates": [[77.61085559078023, 12.967068578899339], [77.61083786847995, 12.96706514304805], [77.61078802121324, 12.967055163543934], [77.61063026491342, 12.967023681232527], [77.6105233718956, 12.967002439220058], [77.61022372257467, 12.966941302532048], [77.61010797693001, 12.966919155383412], [77.61006090422008, 12.96691023200376], [77.60969517619249, 12.966837290289554], [77.60962511320197, 12.966823267221299], [77.60950771345082, 12.966801497746278], [77.60933309415363, 12.966769460978423], [77.60905630583636, 12.966718663639705], [77.60888768204751, 12.9666873795111], [77.60884587268318, 12.966679667913574], [77.60878201012282, 12.966668383047447], [77.60876337148792, 12.966665407944813]]}, "properties": {"kind": "edge", "edge_id": "133632534#0", "from": "1598530796", "to": "cluster_11919132703_12462507904", "type": "highway.primary", "priority": "12", "numLanes": null, "speed": null, "length": null, "in_flow_component": true}}, {"type": "Feature", "geometry": {"type": "LineString", "coordinates": [[77.59696780305707, 12.964833080926635], [77.5969094899774, 12.964690739735325], [77.59687637834263, 12.964624577483665], [77.59686068898887, 12.964595101441628], [77.59682399618114, 12.964538912684032], [77.59680242467341, 12.964492962504309], [77.59665589961212, 12.964185360057552], [77.59636609001916, 12.963731475643419], [77.5961464599045, 12.963409424371303], [77.59603675204691, 12.963267595528112], [77.59594765262395, 12.963185458725569], [77.59583970566833, 12.963089054931249], [77.59544634620778, 12.962749311759026], [77.59522770644837, 12.96256701077281]]}, "properties": {"kind": "edge", "edge_id": "1352261231", "from": "1067781007", "to": "cluster_cluster_1067789502_6894860921_cluster_1067789545_13343865545_13343865547", "type": "highway.primary", "priority": "12", "numLanes": null, "speed": null, "length": null, "in_flow_component": true}}, {"type": "Feature", "geometry": {"type": "LineString", "coordinates": [[77.59330380244596, 12.985714489897747], [77.59354109413013, 12.985623584830076], [77.59360202341212, 12.98560030043865], [77.5937552616156, 12.98554149303983], [77.59439189393726, 12.985297804982043], [77.59445113524245, 12.985466878329087], [77.59447825025771, 12.98554077949261], [77.59468666493567, 12.986066935960412], [77.59484501311296, 12.986446964876128], [77.59502025027149, 12.986865311168557], [77.59507686215628, 12.986905309857981]]}, "properties": {"kind": "edge", "edge_id": "1415917704", "from": "263156256", "to": "316662057", "type": "highway.tertiary", "priority": "10", "numLanes": null, "speed": null, "length": null, "in_flow_component": true}}, {"type": "Feature", "geometry": {"type": "LineString", "coordinates": [[77.58500225207486, 12.963249507948664], [77.58497433466142, 12.96333814179166], [77.58496767009397, 12.963397473728353], [77.58497358463387, 12.963434998130705], [77.58497724621759, 12.963521963140455], [77.58496131700224, 12.963585091211867], [77.5849569690771, 12.963610069374951], [77.58492859148573, 12.963645224076432], [77.58486618991164, 12.963686137375742], [77.5848082761792, 12.963715622728708], [77.58473361439496, 12.963737866199027]]}, "properties": {"kind": "edge", "edge_id": "143368260#0", "from": "1568922443", "to": "429230952", "type": "highway.primary_link", "priority": "7", "numLanes": null, "speed": null, "length": null, "in_flow_component": true}}, {"type": "Feature", "geometry": {"type": "LineString", "coordinates": [[77.596918413686, 12.96496484269584], [77.59695036282136, 12.964963349378083]]}, "properties": {"kind": "edge", "edge_id": "1452617366", "from": "428435131", "to": "13321896550", "type": "highway.primary", "priority": "12", "numLanes": null, "speed": null, "length": null, "in_flow_component": true}}, {"type": "Feature", "geometry": {"type": "LineString", "coordinates": [[77.59700739277527, 12.964884362197676], [77.59700663810631, 12.964882653206265]]}, "properties": {"kind": "edge", "edge_id": "1452617367", "from": "13321896550", "to": "1067781007", "type": "highway.primary", "priority": "12", "numLanes": null, "speed": null, "length": null, "in_flow_component": true}}, {"type": "Feature", "geometry": {"type": "LineString", "coordinates": [[77.59689866644976, 12.964819496660787], [77.59687923176706, 12.964819690614775]]}, "properties": {"kind": "edge", "edge_id": "1452617368", "from": "1067781007", "to": "12119649210", "type": "highway.primary", "priority": "12", "numLanes": null, "speed": null, "length": null, "in_flow_component": true}}, {"type": "Feature", "geometry": {"type": "LineString", "coordinates": [[77.60714097423802, 12.971418425698817], [77.60710131110957, 12.971431109876931], [77.60703887738595, 12.971450978677552]]}, "properties": {"kind": "edge", "edge_id": "1466165198", "from": "1232963668", "to": "cluster1232963659_5372824878", "type": "highway.tertiary", "priority": "10", "numLanes": null, "speed": null, "length": null, "in_flow_component": true}}, {"type": "Feature", "geometry": {"type": "LineString", "coordinates": [[77.5868122454458, 12.965494007649198], [77.58695664731421, 12.965365458068263], [77.58699507668047, 12.96533137770096], [77.5872218507414, 12.965142291692203], [77.587402118628, 12.964990166931512], [77.58748559395761, 12.964920494805448], [77.58776561963688, 12.964705492291392], [77.58809206527918, 12.964418565853718], [77.58813807298094, 12.96437799558019]]}, "properties": {"kind": "edge", "edge_id": "1469037766", "from": "cluster_12128921370_12128921371", "to": "3356616807", "type": "highway.primary", "priority": "12", "numLanes": null, "speed": null, "length": null, "in_flow_component": true}}, {"type": "Feature", "geometry": {"type": "LineString", "coordinates": [[77.58841726619846, 12.967333619238662], [77.58833981631429, 12.967246665872356], [77.58829417741619, 12.967198243874499], [77.58817170292276, 12.967086622758286], [77.58796749946976, 12.96687508108513], [77.58794148532898, 12.966844803605385]]}, "properties": {"kind": "edge", "edge_id": "148016866", "from": "cluster245615180_249081348_cluster_12759084951_663313887", "to": "286679311", "type": "highway.primary", "priority": "12", "numLanes": null, "speed": null, "length": null, "in_flow_component": true}}, {"type": "Feature", "geometry": {"type": "LineString", "coordinates": [[77.58794148532898, 12.966844803605385], [77.58779998831801, 12.966799954926389], [77.58769677554419, 12.966787158863566], [77.58763165024526, 12.966796298908402], [77.58756454596782, 12.966827863913212], [77.58753534758729, 12.966854896102198], [77.5874300148062, 12.967037986669993]]}, "properties": {"kind": "edge", "edge_id": "148016873#0", "from": "286679311", "to": "cluster12128943145_287793596_37898955#0-AddedOnRampNode", "type": "highway.primary", "priority": "12", "numLanes": null, "speed": null, "length": null, "in_flow_component": true}}, {"type": "Feature", "geometry": {"type": "LineString", "coordinates": [[77.58427422199543, 12.978130722912754], [77.58461548777287, 12.977876444817893]]}, "properties": {"kind": "edge", "edge_id": "150785556#2", "from": "597084152", "to": "597083726", "type": "highway.primary", "priority": "12", "numLanes": null, "speed": null, "length": null, "in_flow_component": true}}, {"type": "Feature", "geometry": {"type": "LineString", "coordinates": [[77.58838232552225, 12.967865279159623], [77.58851136534705, 12.967810059996921], [77.58862598955261, 12.967857343802574], [77.58876205240291, 12.967893301927967], [77.58893170462598, 12.967952686144308], [77.58907030997574, 12.968020690846414], [77.58912498905507, 12.968052489762835], [77.58951221040412, 12.968306205920575]]}, "properties": {"kind": "edge", "edge_id": "154340361#1", "from": "cluster245615180_249081348_cluster_12759084951_663313887", "to": "428420786", "type": "highway.primary", "priority": "12", "numLanes": null, "speed": null, "length": null, "in_flow_component": true}}, {"type": "Feature", "geometry": {"type": "LineString", "coordinates": [[77.58418214638866, 12.963643512627318], [77.58398445463318, 12.96383908320758]]}, "properties": {"kind": "edge", "edge_id": "161984942", "from": "1739362364", "to": "320644590", "type": "highway.primary", "priority": "12", "numLanes": null, "speed": null, "length": null, "in_flow_component": true}}, {"type": "Feature", "geometry": {"type": "LineString", "coordinates": [[77.60658341047213, 12.96618666798578], [77.60624839320458, 12.96614358784031], [77.6058777913648, 12.96608017514503], [77.60581898074616, 12.9660674837593], [77.60524002177524, 12.965978602176872], [77.60494082217133, 12.965925133563376], [77.60487078202569, 12.965913277114721], [77.60468453056448, 12.965878733507177], [77.60444171395362, 12.965843671842485], [77.60424779978877, 12.96581634168678], [77.60422400695877, 12.965813779195395], [77.60415898105515, 12.965805757099442], [77.60407763147637, 12.965795910813783], [77.60398262463646, 12.965783761923166], [77.60387885538391, 12.96577052622753]]}, "properties": {"kind": "edge", "edge_id": "171887405#1", "from": "cluster_10043357422_10120806056_12460929706_13507201648_#3more", "to": "248455472", "type": "highway.primary", "priority": "12", "numLanes": null, "speed": null, "length": null, "in_flow_component": true}}, {"type": "Feature", "geometry": {"type": "LineString", "coordinates": [[77.59050738256695, 12.986970968733887], [77.59055479117691, 12.98694971698284], [77.59069866379963, 12.986884861141375], [77.59090975107688, 12.98678979258686], [77.59119227049044, 12.986662571903645], [77.59157483170044, 12.986490355766561], [77.59182709079211, 12.986376807190556], [77.59183800290955, 12.986371910126426], [77.59188293443604, 12.986351676661629], [77.59207256397613, 12.986266307445648], [77.59215224800661, 12.986230368828936], [77.59229612059974, 12.986165602588992], [77.5928057720238, 12.985936194243552], [77.59298999038506, 12.985853227395246], [77.59323142710087, 12.985744483540714], [77.59330380244596, 12.985714489897747]]}, "properties": {"kind": "edge", "edge_id": "172920275", "from": "3751686654", "to": "263156256", "type": "highway.tertiary", "priority": "10", "numLanes": null, "speed": null, "length": null, "in_flow_component": true}}, {"type": "Feature", "geometry": {"type": "LineString", "coordinates": [[77.59460175994394, 12.967088528780213], [77.5941532928659, 12.967467113209272], [77.59409009961144, 12.967520413572752], [77.59389930737521, 12.96765222985482], [77.5937012356266, 12.967757196235077], [77.59363567779094, 12.967777906077117], [77.59353553347684, 12.96781233154314], [77.59296613368036, 12.967944126906136], [77.59289325790795, 12.967960934399866], [77.59280466799443, 12.967981421887297], [77.59274842741206, 12.967994540151807], [77.59262895997898, 12.968022201424287], [77.59248778044187, 12.968043664616097], [77.59209137353213, 12.968103898650197], [77.59188559450263, 12.968123023831533], [77.59184688716647, 12.968121331561887], [77.59130600306344, 12.968062575677106], [77.590992084168, 12.9679667759635], [77.590894221689, 12.967936943387262], [77.59066916026696, 12.967873143404171], [77.59050424428997, 12.967826361350317]]}, "properties": {"kind": "edge", "edge_id": "224618934#1", "from": "cluster_11425338076_458263319", "to": "9999163252", "type": "highway.primary", "priority": "12", "numLanes": null, "speed": null, "length": null, "in_flow_component": true}}, {"type": "Feature", "geometry": {"type": "LineString", "coordinates": [[77.59051243122346, 12.967798544304406], [77.59045321069645, 12.96778187832525], [77.59036765680125, 12.967757524279197], [77.59006210160994, 12.967713226317656]]}, "properties": {"kind": "edge", "edge_id": "224618934#2", "from": "9999163252", "to": "428420790", "type": "highway.primary", "priority": "12", "numLanes": null, "speed": null, "length": null, "in_flow_component": true}}, {"type": "Feature", "geometry": {"type": "LineString", "coordinates": [[77.59005664251579, 12.967612999090736], [77.58986741263729, 12.96763792056016], [77.58942175881744, 12.967577128337739], [77.5893589044838, 12.967565376818955]]}, "properties": {"kind": "edge", "edge_id": "224618934#3", "from": "428420790", "to": "663313892", "type": "highway.primary", "priority": "12", "numLanes": null, "speed": null, "length": null, "in_flow_component": true}}, {"type": "Feature", "geometry": {"type": "LineString", "coordinates": [[77.58760578364054, 12.967822592083559], [77.58771007488772, 12.967806015607717], [77.58787699144409, 12.967796856759167], [77.58811627499556, 12.967783996549894], [77.58825464695705, 12.967776024866188]]}, "properties": {"kind": "edge", "edge_id": "22893740", "from": "cluster12128943147_287793735_cluster_10044013422_665062617_665062618", "to": "cluster245615180_249081348_cluster_12759084951_663313887", "type": "highway.primary", "priority": "12", "numLanes": null, "speed": null, "length": null, "in_flow_component": true}}, {"type": "Feature", "geometry": {"type": "LineString", "coordinates": [[77.60240230144346, 12.96941880208476], [77.60245810637416, 12.969363857333734], [77.60250760471494, 12.969287112676984], [77.60265017860499, 12.968939311414829], [77.60290766281246, 12.968267655480421], [77.60297281567188, 12.968101856727674], [77.60306968383071, 12.96789436358073], [77.60321689475805, 12.967549677866332], [77.60324688729183, 12.967484059833472], [77.60329648665225, 12.96737280312673], [77.60332949427936, 12.967304806005925], [77.60340904376199, 12.967115012647097], [77.60358371334951, 12.966718014608963], [77.6036046340471, 12.966665858094835], [77.60375631289921, 12.96626375987138], [77.60376684794143, 12.966231582721317], [77.60385639807001, 12.965958302780086], [77.60386885608423, 12.96583648625179], [77.60387885538391, 12.96577052622753]]}, "properties": {"kind": "edge", "edge_id": "23029281", "from": "248455468", "to": "248455472", "type": "highway.tertiary", "priority": "10", "numLanes": null, "speed": null, "length": null, "in_flow_component": true}}, {"type": "Feature", "geometry": {"type": "LineString", "coordinates": [[77.60673970143252, 12.970436809287678], [77.60668331128667, 12.970258676607521], [77.60664308055783, 12.970137297848511], [77.60662072724624, 12.970069584161525], [77.60660746202602, 12.970025358837956], [77.60659140236983, 12.969969326624545], [77.6065089631474, 12.969687018748742], [77.60645751187789, 12.969531964191328], [77.60638071186096, 12.96928691124362], [77.60636261089145, 12.969229453965601], [77.6062608028185, 12.968750212184238], [77.60624493264737, 12.968562006636427], [77.60624180748516, 12.968474224833018]]}, "properties": {"kind": "edge", "edge_id": "23029284", "from": "23029284-AddedOnRampNode", "to": "cluster_12460929618_263155275_9933265930", "type": "highway.secondary", "priority": "11", "numLanes": null, "speed": null, "length": null, "in_flow_component": true}}, {"type": "Feature", "geometry": {"type": "LineString", "coordinates": [[77.60701389914959, 12.971299363066063], [77.6069539561508, 12.97108973655124], [77.60692346713357, 12.970975035947587], [77.60691397368778, 12.970939174723263], [77.60675375078843, 12.970432512725827]]}, "properties": {"kind": "edge", "edge_id": "23029284-AddedOnRampEdge", "from": "cluster1232963659_5372824878", "to": "23029284-AddedOnRampNode", "type": "highway.secondary", "priority": "11", "numLanes": null, "speed": null, "length": null, "in_flow_component": true}}, {"type": "Feature", "geometry": {"type": "LineString", "coordinates": [[77.60444175273342, 12.971803316514245], [77.60440797823064, 12.971886137710438], [77.60440438695831, 12.971895117610817], [77.60424994572732, 12.972226596080043], [77.60415241072485, 12.972343482564584], [77.60408838348233, 12.972396161139011], [77.60394699165641, 12.972476897857417], [77.60384268699319, 12.972536394000347], [77.60370788740886, 12.972613270213849], [77.60363044388087, 12.972660301079744], [77.60351751738625, 12.972723406806548], [77.60336732678304, 12.972808477473137], [77.60331041042718, 12.972836330773669], [77.60325898960535, 12.972852294136208]]}, "properties": {"kind": "edge", "edge_id": "23029696", "from": "423784673", "to": "248459812", "type": "highway.secondary", "priority": "11", "numLanes": null, "speed": null, "length": null, "in_flow_component": true}}, {"type": "Feature", "geometry": {"type": "LineString", "coordinates": [[77.59772364987796, 12.983948397302598], [77.59764157248087, 12.98400206855357], [77.59753286717479, 12.984073080822148], [77.59740589109063, 12.984150057648632], [77.59739047019337, 12.984164305328221], [77.5971989770034, 12.984327030251897]]}, "properties": {"kind": "edge", "edge_id": "23076279#0", "from": "249082069", "to": "clustercluster12484332871_1523537403_cluster_12803586900_12803624101_12827961143_9642156101_cluster_10601663791_12433045764", "type": "highway.tertiary", "priority": "10", "numLanes": null, "speed": null, "length": null, "in_flow_component": true}}, {"type": "Feature", "geometry": {"type": "LineString", "coordinates": [[77.5839870350177, 12.96385703607645], [77.58399520887512, 12.963952810082136], [77.5840600594688, 12.964711237824865], [77.58406682272914, 12.964759595135192], [77.58411384412916, 12.96507587481435], [77.58422820415561, 12.96526726248806]]}, "properties": {"kind": "edge", "edge_id": "23076921", "from": "320644590", "to": "249087934", "type": "highway.secondary", "priority": "11", "numLanes": null, "speed": null, "length": null, "in_flow_component": true}}, {"type": "Feature", "geometry": {"type": "LineString", "coordinates": [[77.58709879899617, 12.967942009604867], [77.58707860568649, 12.967966874312113], [77.58697938635778, 12.968090909428716], [77.58692023001676, 12.968169554854343], [77.58666430185771, 12.968425875861453], [77.58656300209834, 12.968509096090422], [77.58605850787593, 12.96896772891814], [77.58602281037729, 12.968998800751782], [77.5859736029185, 12.969041841948238], [77.58594356579401, 12.969067978928784], [77.58520656976705, 12.969705905710144], [77.58512399008879, 12.969773309977942], [77.58494351158467, 12.969941155935944], [77.58432898261518, 12.97047640756415], [77.58412120925973, 12.970668465511462], [77.58404006006562, 12.970740643566277], [77.58374602212129, 12.971026974138045], [77.58359979784103, 12.971166833886416], [77.58333430488237, 12.971452067515873], [77.5830865703226, 12.971672889889637], [77.58282359173225, 12.971907324772422], [77.58267042356647, 12.972043910395175], [77.58261611170717, 12.97209233215283], [77.58253208355346, 12.972153426138172], [77.58227890468594, 12.97233780297043], [77.58181268527814, 12.97267733780046], [77.58167624862494, 12.972766055133452]]}, "properties": {"kind": "edge", "edge_id": "23076927#2", "from": "cluster12128943147_287793735_cluster_10044013422_665062617_665062618", "to": "cluster1087824452_cluster_1087824504_1285102586", "type": "highway.primary", "priority": "12", "numLanes": null, "speed": null, "length": null, "in_flow_component": true}}, {"type": "Feature", "geometry": {"type": "LineString", "coordinates": [[77.61385500142629, 12.968390794725442], [77.61336729283282, 12.968351697921065], [77.61248320796368, 12.96825126352449], [77.6121141252347, 12.968148365744073], [77.61191003445087, 12.968037577308419], [77.61180217040335, 12.967941000151258], [77.61177250429249, 12.967914104932294], [77.61167392558382, 12.967824571530507], [77.6115353603186, 12.967654854083168], [77.61139576321433, 12.967483340035683], [77.61137803184772, 12.96746138413106], [77.61127657402385, 12.967351913749269], [77.61121702364512, 12.967286019448087]]}, "properties": {"kind": "edge", "edge_id": "23443806#2", "from": "clustercluster_12460840938_12460840939_cluster_9870839712_9870882717", "to": "cluster_12462507949_13462280316_4903183637_6017833824", "type": "highway.primary", "priority": "12", "numLanes": null, "speed": null, "length": null, "in_flow_component": true}}, {"type": "Feature", "geometry": {"type": "LineString", "coordinates": [[77.6067399049236, 12.966220875870112], [77.60671756234856, 12.966304486015739], [77.60667055681103, 12.966487720211557], [77.6066070477659, 12.966731468670549], [77.60654521247159, 12.966967882605694], [77.60650389916722, 12.967113928931296], [77.606496496985, 12.96713731150601], [77.60642812859274, 12.967383276880426], [77.60634353110271, 12.967698426671943], [77.60632286407392, 12.96777488296362], [77.60622394833446, 12.968006609193543], [77.60619582219991, 12.96806561372393], [77.6061794978256, 12.968099113721792], [77.60609942009683, 12.968264520355168], [77.60601192667738, 12.96843433771866]]}, "properties": {"kind": "edge", "edge_id": "239572010#0", "from": "cluster_10043357422_10120806056_12460929706_13507201648_#3more", "to": "cluster_12460929618_263155275_9933265930", "type": "highway.secondary", "priority": "11", "numLanes": null, "speed": null, "length": null, "in_flow_component": true}}, {"type": "Feature", "geometry": {"type": "LineString", "coordinates": [[77.59709006208061, 12.984156286031755], [77.59711883310108, 12.983990580054922], [77.59712520489282, 12.983708374510677], [77.59712670969444, 12.983640421372662]]}, "properties": {"kind": "edge", "edge_id": "26808007", "from": "clustercluster12484332871_1523537403_cluster_12803586900_12803624101_12827961143_9642156101_cluster_10601663791_12433045764", "to": "663596611", "type": "highway.primary", "priority": "12", "numLanes": null, "speed": null, "length": null, "in_flow_component": true}}, {"type": "Feature", "geometry": {"type": "LineString", "coordinates": [[77.61034895767902, 12.97040720825433], [77.61045048680674, 12.970346834355025]]}, "properties": {"kind": "edge", "edge_id": "27007398#0", "from": "11854316021", "to": "1274338614", "type": "highway.primary", "priority": "12", "numLanes": null, "speed": null, "length": null, "in_flow_component": true}}, {"type": "Feature", "geometry": {"type": "LineString", "coordinates": [[77.61051605276612, 12.970274083077934], [77.6105492518272, 12.97025992749481], [77.61075615021711, 12.970171754611322], [77.61083291221726, 12.970139093271818], [77.61116351869359, 12.969997370146691], [77.61133339048763, 12.969953836324992], [77.61149370085427, 12.969912114900987], [77.61178380242349, 12.969825996922948], [77.6119074318201, 12.969782565696793], [77.61192890875608, 12.969775032313734], [77.61204164983171, 12.969712196421975], [77.61212213003748, 12.96963866269017], [77.61215455177668, 12.96960301326659], [77.61222475949336, 12.969516121665345], [77.61223048873823, 12.969509017430669], [77.61230594435531, 12.969413038885325], [77.6124569749212, 12.969250170780697], [77.61253567618068, 12.969165091019091], [77.6125815163201, 12.969126506188957], [77.61282428717477, 12.968945190150443], [77.61289367449193, 12.968920913875742], [77.61336680611232, 12.968754900249527], [77.61347419002597, 12.968717232838847], [77.6136364589751, 12.968660313123332], [77.61383342410598, 12.968600334437687]]}, "properties": {"kind": "edge", "edge_id": "27007398#1", "from": "1274338614", "to": "clustercluster_12460840938_12460840939_cluster_9870839712_9870882717", "type": "highway.primary", "priority": "12", "numLanes": null, "speed": null, "length": null, "in_flow_component": true}}, {"type": "Feature", "geometry": {"type": "LineString", "coordinates": [[77.59494431058789, 12.967324883943135], [77.5948465746416, 12.967200642724901], [77.5947887308106, 12.967139063332038], [77.59472711429339, 12.967104534241676], [77.59467340818105, 12.967086639785524], [77.59460175994394, 12.967088528780213]]}, "properties": {"kind": "edge", "edge_id": "360675529", "from": "246167200", "to": "cluster_11425338076_458263319", "type": "highway.primary_link", "priority": "7", "numLanes": null, "speed": null, "length": null, "in_flow_component": true}}, {"type": "Feature", "geometry": {"type": "LineString", "coordinates": [[77.59005779162081, 12.96774181785458], [77.58975901351846, 12.96777379254727], [77.58949638847947, 12.967765384761325], [77.58936849239797, 12.96776195985808], [77.5892836920934, 12.967774819583957], [77.58922855508953, 12.967796689476426], [77.58919546106074, 12.96783893837115], [77.58918419647286, 12.967872025972994], [77.58919179448077, 12.967938624091355], [77.58921331695801, 12.967988821738732], [77.58926121590959, 12.968033065205939], [77.58951221040412, 12.968306205920575]]}, "properties": {"kind": "edge", "edge_id": "36851745", "from": "428420790", "to": "428420786", "type": "highway.primary_link", "priority": "7", "numLanes": null, "speed": null, "length": null, "in_flow_component": true}}, {"type": "Feature", "geometry": {"type": "LineString", "coordinates": [[77.6142406033373, 12.96847888839394], [77.61430813444524, 12.968506215828581], [77.6143460018165, 12.968524536109978], [77.61441180216785, 12.968562541283609], [77.61467841834175, 12.968715159847287], [77.61535982775571, 12.96912225763323], [77.61548484689077, 12.969194268110272], [77.61604219617139, 12.969515159869129], [77.61626449281182, 12.969640125769985], [77.61647378826817, 12.969763867084305], [77.61650789558149, 12.969783760621532], [77.61665639527705, 12.969872428179606], [77.61703665639182, 12.97009256047595], [77.61707956317865, 12.970117063172202], [77.61766671867224, 12.970468999440076], [77.61801727585463, 12.970693765316442], [77.61809546697188, 12.970736161724792], [77.6192837932662, 12.971449462045841], [77.61930144706793, 12.971463919636463], [77.61934587646353, 12.97151063063137], [77.61937758357696, 12.97155638564242], [77.61942447769556, 12.971636136906138], [77.61945804912435, 12.971745564115503], [77.6194954183091, 12.971821797613442]]}, "properties": {"kind": "edge", "edge_id": "36853688#0", "from": "clustercluster_12460840938_12460840939_cluster_9870839712_9870882717", "to": "cluster_10784153212_11707402967_11707460669_2999494951", "type": "highway.secondary", "priority": "11", "numLanes": null, "speed": null, "length": null, "in_flow_component": true}}, {"type": "Feature", "geometry": {"type": "LineString", "coordinates": [[77.5852420164328, 12.963845475217001], [77.58505495545238, 12.963785899472681], [77.58502787545433, 12.963777224404058], [77.5849504998327, 12.963768597207771], [77.58473361439496, 12.963737866199027]]}, "properties": {"kind": "edge", "edge_id": "36897679#0", "from": "cluster_12077162815_3309317524", "to": "429230952", "type": "highway.primary", "priority": "12", "numLanes": null, "speed": null, "length": null, "in_flow_component": true}}, {"type": "Feature", "geometry": {"type": "LineString", "coordinates": [[77.58794148532898, 12.966844803605385], [77.58782868708944, 12.966706795940613], [77.587775412897, 12.966641555444918], [77.58775915430168, 12.966619311861592], [77.5874990501507, 12.966320059630245], [77.58692530864445, 12.965657761362626], [77.5868122454458, 12.965494007649198]]}, "properties": {"kind": "edge", "edge_id": "36897704#0", "from": "286679311", "to": "cluster_12128921370_12128921371", "type": "highway.primary", "priority": "12", "numLanes": null, "speed": null, "length": null, "in_flow_component": true}}, {"type": "Feature", "geometry": {"type": "LineString", "coordinates": [[77.58860720578582, 12.990465793551286], [77.58863787886145, 12.990447509453245], [77.58877946721272, 12.990402010565203], [77.58884072010336, 12.990392004314291], [77.5889358188557, 12.990376511104587], [77.58915958580661, 12.990340040369318], [77.5891840703237, 12.990337989426408], [77.58929867168894, 12.990319772058305], [77.58971280502952, 12.990348618761022], [77.5900059928611, 12.990379122544185], [77.59042656688534, 12.990407181100286], [77.59054871986268, 12.9904153585519], [77.59090706588775, 12.990439339074168], [77.59100405019643, 12.99044577980463], [77.59102679662632, 12.990444920492944], [77.59118418021039, 12.990439013969834], [77.59162151796049, 12.990422363942365], [77.59184496719026, 12.990390863012683], [77.592703150563, 12.98975395927492], [77.59272665491916, 12.989737372497572], [77.59282265316592, 12.989657725111035]]}, "properties": {"kind": "edge", "edge_id": "36912471#0", "from": "11668359723", "to": "12135211599", "type": "highway.tertiary", "priority": "10", "numLanes": null, "speed": null, "length": null, "in_flow_component": true}}, {"type": "Feature", "geometry": {"type": "LineString", "coordinates": [[77.6099455308673, 12.965068854487534], [77.61001374850102, 12.965126802512133], [77.61013281308696, 12.965272956780396], [77.61036720227723, 12.965648236969022], [77.61045037418653, 12.965770991026263], [77.61057616223084, 12.965916987186656], [77.61078567169606, 12.96612357604753], [77.610898011499, 12.966234292696981], [77.61115822686396, 12.966550770738133], [77.61128211028432, 12.966778997094439], [77.61129825999711, 12.966931875012742], [77.6112878311416, 12.966991786345973], [77.61127369200459, 12.967031588565812], [77.61123180149828, 12.96713969713767]]}, "properties": {"kind": "edge", "edge_id": "36913433#0", "from": "cluster_3268824710_4044110261", "to": "cluster_12462507949_13462280316_4903183637_6017833824", "type": "highway.tertiary", "priority": "10", "numLanes": null, "speed": null, "length": null, "in_flow_component": true}}, {"type": "Feature", "geometry": {"type": "LineString", "coordinates": [[77.59485906906778, 12.962488202886654], [77.59497435101682, 12.962536923061291], [77.59502600506268, 12.962561342822076], [77.59530616389462, 12.962786666417726], [77.59538915896249, 12.962857571451856], [77.59557751685448, 12.963006656836525], [77.59566418479383, 12.963085294657962], [77.595875912315, 12.963276066017611], [77.5959511117666, 12.963394659545656], [77.59609193316864, 12.963561022475387], [77.59631078774908, 12.96386157979286], [77.59652653396759, 12.964217638665456], [77.59672757733395, 12.96467475747943]]}, "properties": {"kind": "edge", "edge_id": "36965407#0", "from": "cluster_cluster_1067789502_6894860921_cluster_1067789545_13343865545_13343865547", "to": "248455447", "type": "highway.primary", "priority": "12", "numLanes": null, "speed": null, "length": null, "in_flow_component": true}}, {"type": "Feature", "geometry": {"type": "LineString", "coordinates": [[77.60914417456243, 12.981287677187229], [77.60952421795037, 12.981141391727133], [77.60996068582486, 12.980981891259175], [77.60998721012712, 12.980972409983737], [77.61004525670104, 12.980964509350448]]}, "properties": {"kind": "edge", "edge_id": "36967993#1", "from": "36967993#1-AddedOnRampNode", "to": "cluster_10123663917_12691279976_1837445457", "type": "highway.tertiary", "priority": "10", "numLanes": null, "speed": null, "length": null, "in_flow_component": true}}, {"type": "Feature", "geometry": {"type": "LineString", "coordinates": [[77.59475189788775, 12.966793957279027], [77.59464336180471, 12.967040683576917]]}, "properties": {"kind": "edge", "edge_id": "375964868#1", "from": "1469034694", "to": "cluster_11425338076_458263319", "type": "highway.primary", "priority": "12", "numLanes": null, "speed": null, "length": null, "in_flow_component": true}}, {"type": "Feature", "geometry": {"type": "LineString", "coordinates": [[77.58677006926513, 12.965985536837966], [77.58699088342351, 12.96625356028909], [77.5872585561315, 12.96656321778887], [77.58732673490624, 12.966671223576283], [77.58733310793498, 12.966690674492462]]}, "properties": {"kind": "edge", "edge_id": "37898955#0-AddedOnRampEdge", "from": "249087938", "to": "cluster12128943145_287793596_37898955#0-AddedOnRampNode", "type": "highway.primary", "priority": "12", "numLanes": null, "speed": null, "length": null, "in_flow_component": true}}, {"type": "Feature", "geometry": {"type": "LineString", "coordinates": [[77.58877848658287, 12.98677797200645], [77.58881270077363, 12.986914772877045], [77.58884803254189, 12.986946041118841], [77.58889227410148, 12.987001432689507], [77.58892279503772, 12.987057412693934], [77.58891671999669, 12.987102374064515], [77.58882961339191, 12.987737906784151], [77.5888211247224, 12.987843332164257], [77.58879750178701, 12.988186331683739], [77.58873711186071, 12.989061912518144], [77.58873442904007, 12.98908750652962], [77.58871448602733, 12.989323321721702], [77.58869391374012, 12.989613981830146], [77.58867061296974, 12.989943607279466], [77.58865875008117, 12.990087914096529], [77.58863958728293, 12.990301225931251], [77.58863268110159, 12.990328217190818], [77.58861681406516, 12.99037950987546], [77.58860720578582, 12.990465793551286]]}, "properties": {"kind": "edge", "edge_id": "403473928#0", "from": "cluster_1363295017_cluster_12099941385_665045371_cluster_12099941393_1307598719", "to": "11668359723", "type": "highway.tertiary", "priority": "10", "numLanes": null, "speed": null, "length": null, "in_flow_component": true}}, {"type": "Feature", "geometry": {"type": "LineString", "coordinates": [[77.59706337624506, 12.984584689242936], [77.59705490439076, 12.984593898580469], [77.59667777769201, 12.985022371097676], [77.59634430934655, 12.985396923827182], [77.59619279989838, 12.98556882512992], [77.59589652921358, 12.98591490907967], [77.59584883417688, 12.985970585347463], [77.59563505656216, 12.986214299077238], [77.595492751144, 12.986385475782654], [77.59536398685131, 12.986538809885015], [77.5951892452166, 12.986753584961297], [77.5951186461729, 12.986848156879933], [77.59507686215628, 12.986905309857981]]}, "properties": {"kind": "edge", "edge_id": "45444030#0", "from": "clustercluster12484332871_1523537403_cluster_12803586900_12803624101_12827961143_9642156101_cluster_10601663791_12433045764", "to": "316662057", "type": "highway.primary", "priority": "12", "numLanes": null, "speed": null, "length": null, "in_flow_component": true}}, {"type": "Feature", "geometry": {"type": "LineString", "coordinates": [[77.5874300148062, 12.967037986669993], [77.58739570387839, 12.967274396593723], [77.58736683060364, 12.967475427964342]]}, "properties": {"kind": "edge", "edge_id": "461556532", "from": "cluster12128943145_287793596_37898955#0-AddedOnRampNode", "to": "cluster12128943147_287793735_cluster_10044013422_665062617_665062618", "type": "highway.primary", "priority": "12", "numLanes": null, "speed": null, "length": null, "in_flow_component": true}}, {"type": "Feature", "geometry": {"type": "LineString", "coordinates": [[77.60033506591385, 12.968000038660655], [77.6004396168728, 12.968044074819323], [77.60106948235054, 12.968430408948773], [77.60111602508194, 12.96845921473429], [77.6013685552329, 12.968622017383055], [77.60167166986683, 12.968839061693135], [77.60184763512052, 12.968964956439239], [77.60195780599615, 12.969053294058295], [77.60206788389844, 12.96914154220311], [77.60240230144346, 12.96941880208476]]}, "properties": {"kind": "edge", "edge_id": "461556535#3", "from": "11496183647", "to": "248455468", "type": "highway.primary", "priority": "12", "numLanes": null, "speed": null, "length": null, "in_flow_component": true}}, {"type": "Feature", "geometry": {"type": "LineString", "coordinates": [[77.60240230144346, 12.96941880208476], [77.60244689702192, 12.9694552158568], [77.60248477997071, 12.969483927283052], [77.60292776934693, 12.969819636029031], [77.60298245850868, 12.969861098224474], [77.60298644832666, 12.969863858929205], [77.60371132678397, 12.970368215793643], [77.60408697550484, 12.970561854370361], [77.60428925601215, 12.970658031787863], [77.60465709584699, 12.970835937573773], [77.60467765035548, 12.970845940476192], [77.60480710360216, 12.970901560044798]]}, "properties": {"kind": "edge", "edge_id": "461556535#5", "from": "248455468", "to": "60952254", "type": "highway.primary", "priority": "12", "numLanes": null, "speed": null, "length": null, "in_flow_component": true}}, {"type": "Feature", "geometry": {"type": "LineString", "coordinates": [[77.59679925006888, 12.96483512442106], [77.59664596107314, 12.96485228351592], [77.5965708959776, 12.964862157249238], [77.59650051148874, 12.964870358076807], [77.59624251654853, 12.964926054212734], [77.5961376133077, 12.964963328547334], [77.59600803556911, 12.965028494089744], [77.59595145726327, 12.965080012214376], [77.59583457915122, 12.965197269478393], [77.59572230854138, 12.965332459083976], [77.59559614554946, 12.96552262569547], [77.59539746515048, 12.96582626422288], [77.59533174792801, 12.965938132491415], [77.59526648276275, 12.966049183153157]]}, "properties": {"kind": "edge", "edge_id": "498553874#0", "from": "12119649210", "to": "498553874#0-AddedOffRampNode", "type": "highway.primary", "priority": "12", "numLanes": null, "speed": null, "length": null, "in_flow_component": true}}, {"type": "Feature", "geometry": {"type": "LineString", "coordinates": [[77.59524090824318, 12.966034712262992], [77.59503614918907, 12.96638295060524], [77.59497054003377, 12.96651415125413], [77.59481134558739, 12.966761473160743], [77.59477592911173, 12.96681061184239]]}, "properties": {"kind": "edge", "edge_id": "498553874#0-AddedOffRampEdge", "from": "498553874#0-AddedOffRampNode", "to": "1469034694", "type": "highway.primary", "priority": "12", "numLanes": null, "speed": null, "length": null, "in_flow_component": true}}, {"type": "Feature", "geometry": {"type": "LineString", "coordinates": [[77.58875707580587, 12.967510203200998], [77.58881212740081, 12.967391033943155], [77.58885729461805, 12.967295904155966], [77.58887589577353, 12.96725072782952], [77.58891240885917, 12.96716498956991]]}, "properties": {"kind": "edge", "edge_id": "52033011#3", "from": "cluster245615180_249081348_cluster_12759084951_663313887", "to": "663313886", "type": "highway.secondary", "priority": "11", "numLanes": null, "speed": null, "length": null, "in_flow_component": true}}, {"type": "Feature", "geometry": {"type": "LineString", "coordinates": [[77.5893042966393, 12.96634745329298], [77.5896040304984, 12.965731397237352], [77.5897230555259, 12.965509683423143], [77.58973047877943, 12.965425860843917], [77.58968426095352, 12.965232443039197], [77.58965486357316, 12.965115559700568], [77.58963275389725, 12.96501748568074], [77.58962272041315, 12.96497367844495], [77.5896126659502, 12.964918939816366], [77.58954893227028, 12.964670767223907], [77.58951142510385, 12.964517917363345], [77.58945261838532, 12.964256234447609], [77.58932231543022, 12.963699386852282], [77.58926556792291, 12.963494238563998], [77.58921991894024, 12.963329002144025]]}, "properties": {"kind": "edge", "edge_id": "52033011#4", "from": "52033011#4-AddedOnRampNode", "to": "12128921373", "type": "highway.secondary", "priority": "11", "numLanes": null, "speed": null, "length": null, "in_flow_component": true}}, {"type": "Feature", "geometry": {"type": "LineString", "coordinates": [[77.588925737967, 12.96717118100337], [77.58893105837807, 12.967160106112752], [77.58912053848145, 12.966758720161055], [77.58924384167149, 12.966505253163243], [77.5893176257053, 12.96635364471307]]}, "properties": {"kind": "edge", "edge_id": "52033011#4-AddedOnRampEdge", "from": "663313886", "to": "52033011#4-AddedOnRampNode", "type": "highway.secondary", "priority": "11", "numLanes": null, "speed": null, "length": null, "in_flow_component": true}}, {"type": "Feature", "geometry": {"type": "LineString", "coordinates": [[77.5977228888284, 12.983919495094154], [77.59753669210927, 12.983962462525863], [77.59737637678253, 12.983916273434087], [77.59725270401213, 12.983814698985746], [77.59720248728375, 12.983760633587012], [77.59712670969444, 12.983640421372662]]}, "properties": {"kind": "edge", "edge_id": "52063533", "from": "249082069", "to": "663596611", "type": "highway.tertiary_link", "priority": "5", "numLanes": null, "speed": null, "length": null, "in_flow_component": true}}, {"type": "Feature", "geometry": {"type": "LineString", "coordinates": [[77.58625531989391, 12.965843573742541], [77.58643292869105, 12.965790583271266], [77.58651819198208, 12.965724507351393], [77.58653025882437, 12.965715533688423], [77.58666955894398, 12.96561919739504]]}, "properties": {"kind": "edge", "edge_id": "52244624#0", "from": "12111889684", "to": "cluster_12128921370_12128921371", "type": "highway.secondary", "priority": "11", "numLanes": null, "speed": null, "length": null, "in_flow_component": true}}, {"type": "Feature", "geometry": {"type": "LineString", "coordinates": [[77.6099455308673, 12.965068854487534], [77.61008779419123, 12.964869125777978], [77.61053138199482, 12.964308527810958], [77.61062644854786, 12.964185160077934], [77.6110675794554, 12.963601187566525], [77.61133253150192, 12.963250620438615], [77.61249729455288, 12.961799505902208]]}, "properties": {"kind": "edge", "edge_id": "57885669#0", "from": "cluster_3268824710_4044110261", "to": "cluster_253890170_4044110245", "type": "highway.tertiary", "priority": "10", "numLanes": null, "speed": null, "length": null, "in_flow_component": true}}, {"type": "Feature", "geometry": {"type": "LineString", "coordinates": [[77.6194954183091, 12.971821797613442], [77.61948853015268, 12.97210526930098], [77.6194793222122, 12.972246385634405], [77.61947726415418, 12.972278568053413], [77.61947559379963, 12.972303790246851]]}, "properties": {"kind": "edge", "edge_id": "638541493#1", "from": "cluster_10784153212_11707402967_11707460669_2999494951", "to": "11707460711", "type": "highway.secondary", "priority": "11", "numLanes": null, "speed": null, "length": null, "in_flow_component": true}}, {"type": "Feature", "geometry": {"type": "LineString", "coordinates": [[77.61212663006827, 12.974083459031926], [77.61126758065419, 12.974291833786658], [77.61121879006032, 12.974303797213164], [77.61116347757337, 12.974317542626133]]}, "properties": {"kind": "edge", "edge_id": "638541500#0", "from": "334473824", "to": "cluster_11854316017_11854316018_11854316019_4044263600", "type": "highway.primary", "priority": "12", "numLanes": null, "speed": null, "length": null, "in_flow_component": true}}, {"type": "Feature", "geometry": {"type": "LineString", "coordinates": [[77.5868122454458, 12.965494007649198], [77.58669357531562, 12.96534033777955], [77.58596999601517, 12.964538589284276], [77.58550867374144, 12.964030561023208], [77.58548438160827, 12.964006409474166], [77.58546957034207, 12.963990475382577], [77.5852420164328, 12.963845475217001]]}, "properties": {"kind": "edge", "edge_id": "638928393#0", "from": "cluster_12128921370_12128921371", "to": "cluster_12077162815_3309317524", "type": "highway.primary", "priority": "12", "numLanes": null, "speed": null, "length": null, "in_flow_component": true}}, {"type": "Feature", "geometry": {"type": "LineString", "coordinates": [[77.58500225207486, 12.963249507948664], [77.5850735652593, 12.963429307115847], [77.5851478766523, 12.963622899107124], [77.58515686946916, 12.963646299240514], [77.5851876989947, 12.96372368890818], [77.5852420164328, 12.963845475217001]]}, "properties": {"kind": "edge", "edge_id": "688824222#0", "from": "1568922443", "to": "cluster_12077162815_3309317524", "type": "highway.primary", "priority": "12", "numLanes": null, "speed": null, "length": null, "in_flow_component": true}}, {"type": "Feature", "geometry": {"type": "LineString", "coordinates": [[77.58473361439496, 12.963737866199027], [77.58447961738793, 12.963690428522854], [77.5842034196057, 12.963642940005716]]}, "properties": {"kind": "edge", "edge_id": "688824223#0", "from": "429230952", "to": "1739362364", "type": "highway.primary", "priority": "12", "numLanes": null, "speed": null, "length": null, "in_flow_component": true}}, {"type": "Feature", "geometry": {"type": "LineString", "coordinates": [[77.61946084507355, 12.97230285469536], [77.61944760592651, 12.972331716741671], [77.6193975708708, 12.972383083141978], [77.61934457034523, 12.972432762908689], [77.61932143274811, 12.972440042605813], [77.6191687318244, 12.972487022454594], [77.61909195777652, 12.972465661886412]]}, "properties": {"kind": "edge", "edge_id": "719664029", "from": "11707460711", "to": "334473774", "type": "highway.primary_link", "priority": "7", "numLanes": null, "speed": null, "length": null, "in_flow_component": true}}, {"type": "Feature", "geometry": {"type": "LineString", "coordinates": [[77.59504837930538, 12.962418196362064], [77.59467050680898, 12.962203784313823], [77.59463751833732, 12.96218496036521]]}, "properties": {"kind": "edge", "edge_id": "736430942", "from": "cluster_cluster_1067789502_6894860921_cluster_1067789545_13343865545_13343865547", "to": "cluster_1067789550_248455441_428457189_6894860920", "type": "highway.primary", "priority": "12", "numLanes": null, "speed": null, "length": null, "in_flow_component": true}}, {"type": "Feature", "geometry": {"type": "LineString", "coordinates": [[77.58411713003589, 12.961521431555513], [77.584617495596, 12.962421440589743], [77.58479367183453, 12.962765166898853], [77.58494228253353, 12.963115581225749], [77.58500225207486, 12.963249507948664]]}, "properties": {"kind": "edge", "edge_id": "763175324#1", "from": "cluster_12128921387_12128921388", "to": "1568922443", "type": "highway.primary", "priority": "12", "numLanes": null, "speed": null, "length": null, "in_flow_component": true}}, {"type": "Feature", "geometry": {"type": "LineString", "coordinates": [[77.59709240958054, 12.964928052949189], [77.59708614814345, 12.964928296128953]]}, "properties": {"kind": "edge", "edge_id": "763175329#3", "from": "428435133", "to": "13321896550", "type": "highway.primary", "priority": "12", "numLanes": null, "speed": null, "length": null, "in_flow_component": true}}, {"type": "Feature", "geometry": {"type": "LineString", "coordinates": [[77.60871784958508, 12.966655023273423], [77.60864868794913, 12.966639093690796], [77.60858045869095, 12.966624238850835], [77.6084577326512, 12.966595204520088], [77.60792040832746, 12.96647085896742], [77.60751665372902, 12.966390706321173], [77.60739709054025, 12.966364621055057], [77.60692889832819, 12.966262166131912], [77.60686713175639, 12.966248691534192], [77.60682281486845, 12.966239017170247]]}, "properties": {"kind": "edge", "edge_id": "763175330#0", "from": "cluster_11919132703_12462507904", "to": "cluster_10043357422_10120806056_12460929706_13507201648_#3more", "type": "highway.primary", "priority": "12", "numLanes": null, "speed": null, "length": null, "in_flow_component": true}}, {"type": "Feature", "geometry": {"type": "LineString", "coordinates": [[77.59457241180137, 12.962355726228969], [77.59461509491197, 12.962376712121458], [77.59480917069519, 12.962464307643568], [77.59485906906778, 12.962488202886654]]}, "properties": {"kind": "edge", "edge_id": "763282652", "from": "cluster_1067789550_248455441_428457189_6894860920", "to": "cluster_cluster_1067789502_6894860921_cluster_1067789545_13343865545_13343865547", "type": "highway.primary", "priority": "12", "numLanes": null, "speed": null, "length": null, "in_flow_component": true}}, {"type": "Feature", "geometry": {"type": "LineString", "coordinates": [[77.60248897488869, 12.979386011374002], [77.60249221861638, 12.97939672970265], [77.60261418437753, 12.979803406694005], [77.60272968095717, 12.98018150963407], [77.60289461363236, 12.980706737625551], [77.60290605001448, 12.980743392641207]]}, "properties": {"kind": "edge", "edge_id": "763290544#0", "from": "cluster_10075533192_10075533193_10684915913_10684915914_#1more", "to": "254665681", "type": "highway.tertiary", "priority": "10", "numLanes": null, "speed": null, "length": null, "in_flow_component": true}}, {"type": "Feature", "geometry": {"type": "LineString", "coordinates": [[77.60601192667738, 12.96843433771866], [77.60593479999034, 12.968600076145567], [77.60575448944972, 12.968968131773584], [77.60550987475891, 12.969468370500982], [77.60538439221546, 12.969723219464612], [77.60524741685676, 12.970015585422646], [77.60523224829313, 12.970045098744668], [77.60514852560274, 12.970214426535671], [77.6050159011994, 12.970473502740791], [77.60486927154841, 12.970767681840709], [77.60485293558773, 12.970800097815811], [77.60480710360216, 12.970901560044798]]}, "properties": {"kind": "edge", "edge_id": "763290548#0", "from": "cluster_12460929618_263155275_9933265930", "to": "60952254", "type": "highway.secondary", "priority": "11", "numLanes": null, "speed": null, "length": null, "in_flow_component": true}}, {"type": "Feature", "geometry": {"type": "LineString", "coordinates": [[77.60876337148792, 12.966665407944813], [77.60881231352043, 12.96657972418121], [77.6099455308673, 12.965068854487534]]}, "properties": {"kind": "edge", "edge_id": "764329018#0", "from": "cluster_11919132703_12462507904", "to": "cluster_3268824710_4044110261", "type": "highway.tertiary", "priority": "10", "numLanes": null, "speed": null, "length": null, "in_flow_component": true}}, {"type": "Feature", "geometry": {"type": "LineString", "coordinates": [[77.58813807298094, 12.96437799558019], [77.58819590711641, 12.964323033339557], [77.58858825681395, 12.963959923492265], [77.58890324590622, 12.963678801984434], [77.58913931665386, 12.963418069996555], [77.58921991894024, 12.963329002144025]]}, "properties": {"kind": "edge", "edge_id": "764329022#0", "from": "3356616807", "to": "12128921373", "type": "highway.primary", "priority": "12", "numLanes": null, "speed": null, "length": null, "in_flow_component": true}}, {"type": "Feature", "geometry": {"type": "LineString", "coordinates": [[77.60610837888254, 12.971476927028172], [77.6063563345722, 12.971500732103053], [77.60675306388251, 12.971480494489132], [77.60680548518535, 12.971472199621155], [77.60686126166406, 12.971449958346051], [77.60690901586855, 12.971409277225748], [77.60699975388043, 12.971303299240539]]}, "properties": {"kind": "edge", "edge_id": "764406992", "from": "248459877", "to": "cluster1232963659_5372824878", "type": "highway.primary_link", "priority": "7", "numLanes": null, "speed": null, "length": null, "in_flow_component": true}}, {"type": "Feature", "geometry": {"type": "LineString", "coordinates": [[77.59481735726875, 12.962383187918503], [77.59498066254072, 12.962479311338901], [77.59504288383232, 12.962518984123973], [77.5952057498804, 12.962652694627897], [77.59539240711847, 12.96280658535724], [77.5957950972266, 12.963157799496987], [77.5959707051513, 12.963312070914304], [77.59608326457271, 12.963453509968321], [77.59620222016457, 12.96361656755243]]}, "properties": {"kind": "edge", "edge_id": "766406230", "from": "6991440387", "to": "1454651936", "type": "highway.primary", "priority": "12", "numLanes": null, "speed": null, "length": null, "in_flow_component": true}}, {"type": "Feature", "geometry": {"type": "LineString", "coordinates": [[77.61096793229707, 12.967091121221829], [77.61085559078023, 12.967068578899339]]}, "properties": {"kind": "edge", "edge_id": "766406977", "from": "cluster_12462507949_13462280316_4903183637_6017833824", "to": "1598530796", "type": "highway.primary", "priority": "12", "numLanes": null, "speed": null, "length": null, "in_flow_component": true}}]}